{"data":{"Runs":[{"id":"419","start":"2019-10-26T19:01:53.561Z","end":"2019-10-26T19:01:55.736Z","person":{"id":"419","icon":"square","color":"#0707D2","ageGroup":"Kid","favoriteActivity":"Sports","height":54,"zipCode":"47401","state":"IN","latitude":39.1401,"longitude":-86.5083}},{"id":"418","start":"2019-10-26T19:01:09.983Z","end":"2019-10-26T19:01:12.265Z","person":{"id":"418","icon":"cross","color":"#D372D2","ageGroup":"Kid","favoriteActivity":"Sports","height":null,"zipCode":"47401","state":"IN","latitude":39.1401,"longitude":-86.5083}},{"id":"417","start":"2019-10-26T19:00:19.547Z","end":"2019-10-26T19:00:21.926Z","person":{"id":"417","icon":"triangle-up","color":"#D39827","ageGroup":"Kid","favoriteActivity":"Sports","height":54,"zipCode":"47401","state":"IN","latitude":39.1401,"longitude":-86.5083}},{"id":"416","start":"2019-10-26T18:59:34.402Z","end":"2019-10-26T18:59:37.060Z","person":{"id":"416","icon":"diamond","color":"#8E1BCE","ageGroup":null,"favoriteActivity":"Sports","height":52,"zipCode":"47401","state":"IN","latitude":39.1401,"longitude":-86.5083}},{"id":"415","start":"2019-10-26T18:58:48.926Z","end":"2019-10-26T18:58:51.746Z","person":{"id":"415","icon":"star","color":"#0707D2","ageGroup":"Kid","favoriteActivity":"Gaming","height":48,"zipCode":"47401","state":"IN","latitude":39.1401,"longitude":-86.5083}},{"id":"414","start":"2019-10-26T18:57:55.904Z","end":"2019-10-26T18:57:58.022Z","person":{"id":"414","icon":"star","color":"#33820D","ageGroup":"Pre-Teen","favoriteActivity":"Sports","height":61,"zipCode":"47401","state":"IN","latitude":39.1401,"longitude":-86.5083}},{"id":"413","start":"2019-10-26T18:57:06.206Z","end":"2019-10-26T18:57:09.641Z","person":{"id":"413","icon":"diamond","color":"#0707D2","ageGroup":"Kid","favoriteActivity":"Gaming","height":48,"zipCode":"47401","state":"IN","latitude":39.1401,"longitude":-86.5083}},{"id":"412","start":"2019-10-26T18:56:10.915Z","end":"2019-10-26T18:56:13.675Z","person":{"id":"412","icon":"star","color":"#55D4D2","ageGroup":"Kid","favoriteActivity":"Gaming","height":60,"zipCode":"47408","state":"IN","latitude":39.2303,"longitude":-86.4692}},{"id":"411","start":"2019-10-26T18:54:43.194Z","end":"2019-10-26T18:54:45.579Z","person":{"id":"411","icon":"triangle-up","color":"#D36E44","ageGroup":"Kid","favoriteActivity":"Gaming","height":68,"zipCode":"47401","state":"IN","latitude":39.1401,"longitude":-86.5083}},{"id":"410","start":"2019-10-26T18:54:01.619Z","end":"2019-10-26T18:54:03.516Z","person":{"id":"410","icon":"diamond","color":"#55D4D2","ageGroup":"Pre-Teen","favoriteActivity":"Cooking","height":60,"zipCode":"47401","state":"IN","latitude":39.1401,"longitude":-86.5083}},{"id":"409","start":"2019-10-26T18:53:04.513Z","end":"2019-10-26T18:53:07.689Z","person":{"id":"409","icon":"star","color":"#0707D2","ageGroup":"Pre-Teen","favoriteActivity":"Sports","height":60,"zipCode":"47401","state":"IN","latitude":39.1401,"longitude":-86.5083}},{"id":"408","start":"2019-10-26T18:51:45.288Z","end":"2019-10-26T18:51:48.279Z","person":{"id":"408","icon":"star","color":"#0707D2","ageGroup":"Kid","favoriteActivity":"Gaming","height":48,"zipCode":"47401","state":"IN","latitude":39.1401,"longitude":-86.5083}},{"id":"407","start":"2019-10-26T18:50:59.091Z","end":"2019-10-26T18:51:01.808Z","person":{"id":"407","icon":"triangle-up","color":"#33820D","ageGroup":"Pre-Teen","favoriteActivity":"Sports","height":61,"zipCode":"47401","state":"IN","latitude":39.1401,"longitude":-86.5083}},{"id":"406","start":"2019-10-26T18:49:49.089Z","end":"2019-10-26T18:49:52.208Z","person":{"id":"406","icon":"diamond","color":"#0707D2","ageGroup":"Kid","favoriteActivity":"Gaming","height":48,"zipCode":"47401","state":"IN","latitude":39.1401,"longitude":-86.5083}},{"id":"405","start":"2019-10-26T18:47:13.949Z","end":"2019-10-26T18:47:16.881Z","person":{"id":"405","icon":"diamond","color":"#D372D2","ageGroup":"Kid","favoriteActivity":"Gaming","height":55,"zipCode":"47401","state":"IN","latitude":39.1401,"longitude":-86.5083}},{"id":"404","start":"2019-10-26T18:46:28.695Z","end":"2019-10-26T18:46:31.372Z","person":{"id":"404","icon":"square","color":"#33820D","ageGroup":"Kid","favoriteActivity":"Sports","height":54,"zipCode":"47401","state":"IN","latitude":39.1401,"longitude":-86.5083}},{"id":"403","start":"2019-10-26T18:45:22.054Z","end":"2019-10-26T18:45:24.922Z","person":{"id":"403","icon":"star","color":"#D372D2","ageGroup":"Kid","favoriteActivity":"Gaming","height":55,"zipCode":"47401","state":"IN","latitude":39.1401,"longitude":-86.5083}},{"id":"402","start":"2019-10-26T18:44:21.576Z","end":"2019-10-26T18:44:24.636Z","person":{"id":"402","icon":"star","color":"#0707D2","ageGroup":"Kid","favoriteActivity":"Sports","height":58,"zipCode":"47401","state":"IN","latitude":39.1401,"longitude":-86.5083}},{"id":"401","start":"2019-10-26T18:43:20.803Z","end":"2019-10-26T18:43:23.496Z","person":{"id":"401","icon":"triangle-up","color":"#9B180F","ageGroup":"Kid","favoriteActivity":"Sports","height":48,"zipCode":"47401","state":"IN","latitude":39.1401,"longitude":-86.5083}},{"id":"400","start":"2019-10-26T18:42:23.877Z","end":"2019-10-26T18:42:27.876Z","person":{"id":"400","icon":"diamond","color":"#0707D2","ageGroup":"Kid","favoriteActivity":"Sports","height":50,"zipCode":"47401","state":"IN","latitude":39.1401,"longitude":-86.5083}},{"id":"399","start":"2019-10-26T18:41:23.953Z","end":"2019-10-26T18:41:27.665Z","person":{"id":"399","icon":"star","color":"#D3D406","ageGroup":"Kid","favoriteActivity":"Gaming","height":48,"zipCode":"47401","state":"IN","latitude":39.1401,"longitude":-86.5083}},{"id":"398","start":"2019-10-26T18:40:17.086Z","end":"2019-10-26T18:40:20.120Z","person":{"id":"398","icon":"diamond","color":"#0707D2","ageGroup":"Kid","favoriteActivity":"Gaming","height":48,"zipCode":"47401","state":"IN","latitude":39.1401,"longitude":-86.5083}},{"id":"397","start":"2019-10-26T18:38:54.333Z","end":"2019-10-26T18:38:56.810Z","person":{"id":"397","icon":"diamond","color":"#0707D2","ageGroup":"Pre-Teen","favoriteActivity":"Sports","height":58,"zipCode":"47401","state":"IN","latitude":39.1401,"longitude":-86.5083}},{"id":"396","start":"2019-10-26T18:37:49.354Z","end":"2019-10-26T18:37:52.669Z","person":{"id":"396","icon":"diamond","color":"#0707D2","ageGroup":"Kid","favoriteActivity":"Sports","height":50,"zipCode":"47401","state":"IN","latitude":39.1401,"longitude":-86.5083}},{"id":"395","start":"2019-10-26T18:36:45.058Z","end":"2019-10-26T18:36:47.613Z","person":{"id":"395","icon":"diamond","color":"#0707D2","ageGroup":"Kid","favoriteActivity":"Sports","height":58,"zipCode":"47401","state":"IN","latitude":39.1401,"longitude":-86.5083}},{"id":"394","start":"2019-10-26T18:35:22.537Z","end":"2019-10-26T18:35:24.484Z","person":{"id":"394","icon":"cross","color":"#8E1BCE","ageGroup":"Adult","favoriteActivity":"Sports","height":66,"zipCode":"47408","state":"IN","latitude":39.2303,"longitude":-86.4692}},{"id":"393","start":"2019-10-26T18:34:31.939Z","end":"2019-10-26T18:34:34.608Z","person":{"id":"393","icon":"star","color":"#D36E44","ageGroup":"Kid","favoriteActivity":"Sports","height":54,"zipCode":"47401","state":"IN","latitude":39.1401,"longitude":-86.5083}},{"id":"392","start":"2019-10-26T18:33:33.618Z","end":"2019-10-26T18:33:36.694Z","person":{"id":"392","icon":"diamond","color":"#0707D2","ageGroup":"Kid","favoriteActivity":"Sports","height":50,"zipCode":"47401","state":"IN","latitude":39.1401,"longitude":-86.5083}},{"id":"391","start":"2019-10-26T18:32:30.747Z","end":"2019-10-26T18:32:33.317Z","person":{"id":"391","icon":"diamond","color":"#0707D2","ageGroup":"Adult","favoriteActivity":"Sports","height":66,"zipCode":"47408","state":"IN","latitude":39.2303,"longitude":-86.4692}},{"id":"390","start":"2019-10-26T18:31:22.437Z","end":"2019-10-26T18:31:25.039Z","person":{"id":"390","icon":"cross","color":"#55D4D2","ageGroup":"Kid","favoriteActivity":"Sports","height":54,"zipCode":"47401","state":"IN","latitude":39.1401,"longitude":-86.5083}},{"id":"389","start":"2019-10-26T18:29:30.750Z","end":"2019-10-26T18:29:34.083Z","person":{"id":"389","icon":"diamond","color":"#D39827","ageGroup":"Pre-Teen","favoriteActivity":"Sports","height":51,"zipCode":"47401","state":"IN","latitude":39.1401,"longitude":-86.5083}},{"id":"388","start":"2019-10-26T18:27:32.502Z","end":"2019-10-26T18:27:48.857Z","person":{"id":"388","icon":"diamond","color":"#8E1BCE","ageGroup":"Pre-Teen","favoriteActivity":"Other","height":70,"zipCode":"47429","state":"IN","latitude":39.2545,"longitude":-86.6196}},{"id":"387","start":"2019-10-26T18:26:32.362Z","end":"2019-10-26T18:26:49.848Z","person":{"id":"387","icon":"diamond","color":"#8E1BCE","ageGroup":"Pre-Teen","favoriteActivity":"Other","height":70,"zipCode":"47429","state":"IN","latitude":39.2545,"longitude":-86.6196}},{"id":"386","start":"2019-10-26T18:25:31.255Z","end":"2019-10-26T18:25:34.129Z","person":{"id":"386","icon":"star","color":"#D39827","ageGroup":"Pre-Teen","favoriteActivity":"Gaming","height":60,"zipCode":"47429","state":"IN","latitude":39.2545,"longitude":-86.6196}},{"id":"385","start":"2019-10-26T18:22:06.566Z","end":"2019-10-26T18:22:09.256Z","person":{"id":"385","icon":"diamond","color":"#D30706","ageGroup":null,"favoriteActivity":"Gaming","height":54,"zipCode":"47408","state":"IN","latitude":39.2303,"longitude":-86.4692}},{"id":"384","start":"2019-10-26T18:21:27.806Z","end":"2019-10-26T18:21:32.025Z","person":{"id":"384","icon":"star","color":"#8E1BCE","ageGroup":"Kid","favoriteActivity":"Art","height":47,"zipCode":"47408","state":"IN","latitude":39.2303,"longitude":-86.4692}},{"id":"383","start":"2019-10-26T18:20:11.078Z","end":"2019-10-26T18:20:14.341Z","person":{"id":"383","icon":"diamond","color":"#D30706","ageGroup":"Kid","favoriteActivity":"Gaming","height":54,"zipCode":"47408","state":"IN","latitude":39.2303,"longitude":-86.4692}},{"id":"382","start":"2019-10-26T18:19:07.587Z","end":"2019-10-26T18:19:13.006Z","person":{"id":"382","icon":"star","color":"#8E1BCE","ageGroup":"Kid","favoriteActivity":"Cooking","height":47,"zipCode":"47408","state":"IN","latitude":39.2303,"longitude":-86.4692}},{"id":"381","start":"2019-10-26T18:14:08.890Z","end":"2019-10-26T18:14:11.865Z","person":{"id":"381","icon":"star","color":"#D30706","ageGroup":"Kid","favoriteActivity":"Sports","height":60,"zipCode":"47402","state":"IN","latitude":39.1732,"longitude":-86.5015}},{"id":"380","start":"2019-10-26T18:09:53.168Z","end":"2019-10-26T18:09:55.287Z","person":{"id":"380","icon":"star","color":"#33820D","ageGroup":"Pre-Teen","favoriteActivity":"Sports","height":63,"zipCode":"47401","state":"IN","latitude":39.1401,"longitude":-86.5083}},{"id":"379","start":"2019-10-26T18:06:49.532Z","end":"2019-10-26T18:06:52.602Z","person":{"id":"379","icon":"diamond","color":"#0707D2","ageGroup":"Kid","favoriteActivity":"Sports","height":49,"zipCode":"47401","state":"IN","latitude":39.1401,"longitude":-86.5083}},{"id":"378","start":"2019-10-26T18:05:39.426Z","end":"2019-10-26T18:05:53.787Z","person":{"id":"378","icon":"diamond","color":"#0707D2","ageGroup":"Kid","favoriteActivity":"Sports","height":51,"zipCode":"47401","state":"IN","latitude":39.1401,"longitude":-86.5083}},{"id":"377","start":"2019-10-26T18:02:13.969Z","end":"2019-10-26T18:02:21.595Z","person":{"id":"377","icon":"diamond","color":"#D372D2","ageGroup":"Retired","favoriteActivity":"Cooking","height":96,"zipCode":"72639","state":"AR","latitude":35.9991,"longitude":-92.5042}},{"id":"376","start":"2019-10-26T18:01:21.155Z","end":"2019-10-26T18:01:21.176Z","person":{"id":"376","icon":"cross","color":"#8E1BCE","ageGroup":"Kid","favoriteActivity":"Cooking","height":48,"zipCode":"47403","state":"IN","latitude":39.1263,"longitude":-86.5769}},{"id":"375","start":"2019-10-26T17:59:16.450Z","end":"2019-10-26T17:59:19.390Z","person":{"id":"375","icon":"triangle-up","color":"#D3D406","ageGroup":"Retired","favoriteActivity":"Other","height":89,"zipCode":"47403","state":"IN","latitude":39.1263,"longitude":-86.5769}},{"id":"374","start":"2019-10-26T17:58:15.588Z","end":"2019-10-26T17:58:19.300Z","person":{"id":"374","icon":"diamond","color":"#55D4D2","ageGroup":"Kid","favoriteActivity":"Cooking","height":48,"zipCode":"47405","state":"IN","latitude":39.1682,"longitude":-86.5186}},{"id":"373","start":"2019-10-26T17:56:42.060Z","end":"2019-10-26T17:56:44.920Z","person":{"id":"373","icon":"cross","color":"#D30706","ageGroup":"Kid","favoriteActivity":"Gaming","height":57,"zipCode":"47403","state":"IN","latitude":39.1263,"longitude":-86.5769}},{"id":"372","start":"2019-10-26T17:55:39.030Z","end":"2019-10-26T17:55:43.300Z","person":{"id":"372","icon":"star","color":"#D372D2","ageGroup":"Kid","favoriteActivity":"Art","height":48,"zipCode":"47403","state":"IN","latitude":39.1263,"longitude":-86.5769}},{"id":"371","start":"2019-10-26T17:54:05.879Z","end":"2019-10-26T17:54:08.784Z","person":{"id":"371","icon":"star","color":"#D39827","ageGroup":"Kid","favoriteActivity":"Other","height":50,"zipCode":"33834","state":"FL","latitude":27.6019,"longitude":-81.8507}},{"id":"370","start":"2019-10-26T17:52:52.913Z","end":"2019-10-26T17:52:55.733Z","person":{"id":"370","icon":"diamond","color":"#8E1BCE","ageGroup":"Kid","favoriteActivity":"Art","height":50,"zipCode":"47455","state":"IN","latitude":39.3165,"longitude":-86.9562}},{"id":"369","start":"2019-10-26T17:50:40.331Z","end":"2019-10-26T17:50:43.238Z","person":{"id":"369","icon":"square","color":"#0707D2","ageGroup":"Kid","favoriteActivity":"Gaming","height":50,"zipCode":"47433","state":"IN","latitude":39.345,"longitude":-86.6583}},{"id":"368","start":"2019-10-26T17:49:14.029Z","end":"2019-10-26T17:49:17.707Z","person":{"id":"368","icon":"star","color":"#33820D","ageGroup":"Adult","favoriteActivity":"Other","height":66,"zipCode":"47433","state":"IN","latitude":39.345,"longitude":-86.6583}},{"id":"367","start":"2019-10-26T17:47:46.885Z","end":"2019-10-26T17:47:50.677Z","person":{"id":"367","icon":"cross","color":"#0707D2","ageGroup":"Kid","favoriteActivity":"Sports","height":50,"zipCode":"47433","state":"IN","latitude":39.345,"longitude":-86.6583}},{"id":"366","start":"2019-10-26T17:40:35.046Z","end":"2019-10-26T17:40:37.878Z","person":{"id":"366","icon":"star","color":"#D372D2","ageGroup":"Pre-Teen","favoriteActivity":"Art","height":62,"zipCode":"47401","state":"IN","latitude":39.1401,"longitude":-86.5083}},{"id":"365","start":"2019-10-26T17:39:48.907Z","end":"2019-10-26T17:39:51.657Z","person":{"id":"365","icon":"diamond","color":"#8E1BCE","ageGroup":"Kid","favoriteActivity":"Art","height":58,"zipCode":"47401","state":"IN","latitude":39.1401,"longitude":-86.5083}},{"id":"364","start":"2019-10-26T17:38:33.539Z","end":"2019-10-26T17:38:36.888Z","person":{"id":"364","icon":"diamond","color":"#8E1BCE","ageGroup":"Kid","favoriteActivity":"Art","height":58,"zipCode":"47401","state":"IN","latitude":39.1401,"longitude":-86.5083}},{"id":"363","start":"2019-10-26T17:37:32.715Z","end":"2019-10-26T17:37:35.403Z","person":{"id":"363","icon":"star","color":"#55D4D2","ageGroup":"Kid","favoriteActivity":"Art","height":56,"zipCode":"47401","state":"IN","latitude":39.1401,"longitude":-86.5083}},{"id":"362","start":"2019-10-26T17:36:04.592Z","end":"2019-10-26T17:36:07.953Z","person":{"id":"362","icon":"triangle-up","color":"#0707D2","ageGroup":"Teen","favoriteActivity":"Art","height":67,"zipCode":"47201","state":"IN","latitude":39.2055,"longitude":-85.9317}},{"id":"361","start":"2019-10-26T17:35:02.111Z","end":"2019-10-26T17:35:04.639Z","person":{"id":"361","icon":"star","color":"#D372D2","ageGroup":"Teen","favoriteActivity":"Art","height":63,"zipCode":"47201","state":"IN","latitude":39.2055,"longitude":-85.9317}},{"id":"360","start":"2019-10-26T17:33:23.879Z","end":"2019-10-26T17:33:26.358Z","person":{"id":"360","icon":"star","color":"#55D4D2","ageGroup":"Pre-Teen","favoriteActivity":"Gaming","height":60,"zipCode":"47403","state":"IN","latitude":39.1263,"longitude":-86.5769}},{"id":"359","start":"2019-10-26T17:32:35.055Z","end":"2019-10-26T17:32:38.192Z","person":{"id":"359","icon":"diamond","color":"#D3D406","ageGroup":"Adult","favoriteActivity":"Cooking","height":70,"zipCode":"47403","state":"IN","latitude":39.1263,"longitude":-86.5769}},{"id":"358","start":"2019-10-26T17:31:18.687Z","end":"2019-10-26T17:31:21.783Z","person":{"id":"358","icon":"cross","color":"#D30706","ageGroup":"Pre-Teen","favoriteActivity":"Other","height":57,"zipCode":"47403","state":"IN","latitude":39.1263,"longitude":-86.5769}},{"id":"357","start":"2019-10-26T17:30:09.721Z","end":"2019-10-26T17:30:17.536Z","person":{"id":"357","icon":"cross","color":"#D30706","ageGroup":null,"favoriteActivity":"Other","height":57,"zipCode":"47403","state":"IN","latitude":39.1263,"longitude":-86.5769}},{"id":"356","start":"2019-10-26T17:29:07.727Z","end":"2019-10-26T17:29:10.547Z","person":{"id":"356","icon":"square","color":"#D30706","ageGroup":"Pre-Teen","favoriteActivity":"Cooking","height":63,"zipCode":"47403","state":"IN","latitude":39.1263,"longitude":-86.5769}},{"id":"355","start":"2019-10-26T17:27:39.824Z","end":"2019-10-26T17:27:42.256Z","person":{"id":"355","icon":"star","color":"#0707D2","ageGroup":"Kid","favoriteActivity":"Sports","height":55,"zipCode":"47408","state":"IN","latitude":39.2303,"longitude":-86.4692}},{"id":"354","start":"2019-10-26T17:26:55.713Z","end":"2019-10-26T17:26:58.351Z","person":{"id":"354","icon":"star","color":"#D30706","ageGroup":"Kid","favoriteActivity":"Sports","height":56,"zipCode":"47408","state":"IN","latitude":39.2303,"longitude":-86.4692}},{"id":"353","start":"2019-10-26T17:23:34.882Z","end":"2019-10-26T17:23:37.545Z","person":{"id":"353","icon":"cross","color":"#55D4D2","ageGroup":"Kid","favoriteActivity":"Gaming","height":59,"zipCode":"47403","state":"IN","latitude":39.1263,"longitude":-86.5769}},{"id":"352","start":"2019-10-26T17:22:26.394Z","end":"2019-10-26T17:22:29.340Z","person":{"id":"352","icon":"star","color":"#0707D2","ageGroup":"Kid","favoriteActivity":"Gaming","height":60,"zipCode":"47408","state":"IN","latitude":39.2303,"longitude":-86.4692}},{"id":"351","start":"2019-10-26T17:21:25.999Z","end":"2019-10-26T17:21:28.528Z","person":{"id":"351","icon":"star","color":"#D30706","ageGroup":null,"favoriteActivity":"Gaming","height":55,"zipCode":"47408","state":"IN","latitude":39.2303,"longitude":-86.4692}},{"id":"350","start":"2019-10-26T17:20:44.576Z","end":"2019-10-26T17:20:48.734Z","person":{"id":"350","icon":"diamond","color":"#D30706","ageGroup":"Kid","favoriteActivity":"Gaming","height":36,"zipCode":"47401","state":"IN","latitude":39.1401,"longitude":-86.5083}},{"id":"349","start":"2019-10-26T17:19:57.445Z","end":"2019-10-26T17:20:00.704Z","person":{"id":"349","icon":"triangle-up","color":"#9B180F","ageGroup":"Kid","favoriteActivity":"Gaming","height":44,"zipCode":"47401","state":"IN","latitude":39.1401,"longitude":-86.5083}},{"id":"348","start":"2019-10-26T17:19:01.925Z","end":"2019-10-26T17:19:04.394Z","person":{"id":"348","icon":"star","color":"#0707D2","ageGroup":"Kid","favoriteActivity":"Gaming","height":58,"zipCode":"47401","state":"IN","latitude":39.1401,"longitude":-86.5083}},{"id":"347","start":"2019-10-26T17:18:16.958Z","end":"2019-10-26T17:18:18.792Z","person":{"id":"347","icon":"diamond","color":"#8E1BCE","ageGroup":"Teen","favoriteActivity":"Gaming","height":69,"zipCode":"47403","state":"IN","latitude":39.1263,"longitude":-86.5769}},{"id":"346","start":"2019-10-26T17:17:33.698Z","end":"2019-10-26T17:17:35.803Z","person":{"id":"346","icon":"diamond","color":"#8E1BCE","ageGroup":"Teen","favoriteActivity":"Sports","height":70,"zipCode":"47404","state":"IN","latitude":39.195,"longitude":-86.5757}},{"id":"345","start":"2019-10-26T17:16:51.796Z","end":"2019-10-26T17:16:54.074Z","person":{"id":"345","icon":"cross","color":"#9B180F","ageGroup":"Pre-Teen","favoriteActivity":"Gaming","height":69,"zipCode":"47403","state":"IN","latitude":39.1263,"longitude":-86.5769}},{"id":"344","start":"2019-10-26T17:16:01.614Z","end":"2019-10-26T17:16:03.823Z","person":{"id":"344","icon":"cross","color":"#8E1BCE","ageGroup":"Pre-Teen","favoriteActivity":"Gaming","height":75,"zipCode":"47401","state":"IN","latitude":39.1401,"longitude":-86.5083}},{"id":"343","start":"2019-10-26T17:14:38.846Z","end":"2019-10-26T17:14:41.053Z","person":{"id":"343","icon":"star","color":"#0707D2","ageGroup":"Pre-Teen","favoriteActivity":null,"height":54,"zipCode":"47403","state":"IN","latitude":39.1263,"longitude":-86.5769}},{"id":"342","start":"2019-10-26T17:13:23.875Z","end":"2019-10-26T17:13:26.291Z","person":{"id":"342","icon":"square","color":"#D36E44","ageGroup":"Kid","favoriteActivity":"Sports","height":56,"zipCode":"47401","state":"IN","latitude":39.1401,"longitude":-86.5083}},{"id":"341","start":"2019-10-26T17:12:46.416Z","end":"2019-10-26T17:12:49.107Z","person":{"id":"341","icon":"triangle-up","color":"#D30706","ageGroup":"Pre-Teen","favoriteActivity":"Sports","height":58,"zipCode":"47401","state":"IN","latitude":39.1401,"longitude":-86.5083}},{"id":"340","start":"2019-10-26T17:11:58.333Z","end":"2019-10-26T17:12:00.266Z","person":{"id":"340","icon":"star","color":"#D30706","ageGroup":"Kid","favoriteActivity":"Sports","height":56,"zipCode":"47408","state":"IN","latitude":39.2303,"longitude":-86.4692}},{"id":"339","start":"2019-10-26T17:11:08.612Z","end":"2019-10-26T17:11:17.592Z","person":{"id":"339","icon":"star","color":"#D30706","ageGroup":"Kid","favoriteActivity":"Sports","height":56,"zipCode":"47408","state":"IN","latitude":39.2303,"longitude":-86.4692}},{"id":"338","start":"2019-10-26T17:10:18.637Z","end":"2019-10-26T17:10:21.026Z","person":{"id":"338","icon":"cross","color":"#0707D2","ageGroup":"Kid","favoriteActivity":"Sports","height":55,"zipCode":"47408","state":"IN","latitude":39.2303,"longitude":-86.4692}},{"id":"337","start":"2019-10-26T17:08:49.611Z","end":"2019-10-26T17:08:52.152Z","person":{"id":"337","icon":"cross","color":"#D36E44","ageGroup":"Kid","favoriteActivity":"Sports","height":55,"zipCode":"47401","state":"IN","latitude":39.1401,"longitude":-86.5083}},{"id":"336","start":"2019-10-26T17:07:55.229Z","end":"2019-10-26T17:07:57.686Z","person":{"id":"336","icon":"triangle-up","color":"#D30706","ageGroup":"Pre-Teen","favoriteActivity":"Sports","height":59,"zipCode":"47401","state":"IN","latitude":39.1401,"longitude":-86.5083}},{"id":"335","start":"2019-10-26T17:06:56.884Z","end":"2019-10-26T17:06:59.081Z","person":{"id":"335","icon":"star","color":"#0707D2","ageGroup":null,"favoriteActivity":"Gaming","height":58,"zipCode":"47401","state":"IN","latitude":39.1401,"longitude":-86.5083}},{"id":"334","start":"2019-10-26T17:06:10.201Z","end":"2019-10-26T17:06:12.596Z","person":{"id":"334","icon":"square","color":"#D36E44","ageGroup":"Kid","favoriteActivity":"Sports","height":55,"zipCode":"47401","state":"IN","latitude":39.1401,"longitude":-86.5083}},{"id":"333","start":"2019-10-26T17:05:11.776Z","end":"2019-10-26T17:05:14.635Z","person":{"id":"333","icon":"diamond","color":"#D39827","ageGroup":"Pre-Teen","favoriteActivity":"Cooking","height":58,"zipCode":"47401","state":"IN","latitude":39.1401,"longitude":-86.5083}},{"id":"332","start":"2019-10-26T17:04:24.393Z","end":"2019-10-26T17:04:27.234Z","person":{"id":"332","icon":"diamond","color":"#D39827","ageGroup":"Pre-Teen","favoriteActivity":"Cooking","height":58,"zipCode":"47401","state":"IN","latitude":39.1401,"longitude":-86.5083}},{"id":"331","start":"2019-10-26T17:03:30.234Z","end":"2019-10-26T17:03:32.829Z","person":{"id":"331","icon":"diamond","color":"#D372D2","ageGroup":"Adult","favoriteActivity":"Sports","height":55,"zipCode":"47401","state":"IN","latitude":39.1401,"longitude":-86.5083}},{"id":"330","start":"2019-10-26T17:02:55.594Z","end":"2019-10-26T17:02:58.230Z","person":{"id":"330","icon":"cross","color":"#D372D2","ageGroup":"Adult","favoriteActivity":"Sports","height":59,"zipCode":"47401","state":"IN","latitude":39.1401,"longitude":-86.5083}},{"id":"329","start":"2019-10-26T17:02:15.281Z","end":"2019-10-26T17:02:17.633Z","person":{"id":"329","icon":"cross","color":"#33820D","ageGroup":"Adult","favoriteActivity":"Sports","height":66,"zipCode":"47401","state":"IN","latitude":39.1401,"longitude":-86.5083}},{"id":"328","start":"2019-10-26T17:01:39.651Z","end":"2019-10-26T17:01:42.024Z","person":{"id":"328","icon":"cross","color":"#33820D","ageGroup":"Adult","favoriteActivity":"Sports","height":65,"zipCode":"47401","state":"IN","latitude":39.1401,"longitude":-86.5083}},{"id":"327","start":"2019-10-26T17:00:54.790Z","end":"2019-10-26T17:00:57.234Z","person":{"id":"327","icon":"square","color":"#55D4D2","ageGroup":"Kid","favoriteActivity":"Sports","height":58,"zipCode":"47401","state":"IN","latitude":39.1401,"longitude":-86.5083}},{"id":"326","start":"2019-10-26T17:00:06.710Z","end":"2019-10-26T17:00:10.314Z","person":{"id":"326","icon":"triangle-up","color":"#55D4D2","ageGroup":"Kid","favoriteActivity":"Cooking","height":46,"zipCode":"47401","state":"IN","latitude":39.1401,"longitude":-86.5083}},{"id":"325","start":"2019-10-26T16:58:32.016Z","end":"2019-10-26T16:58:38.288Z","person":{"id":"325","icon":"square","color":"#0707D2","ageGroup":"Kid","favoriteActivity":"Sports","height":36,"zipCode":"47401","state":"IN","latitude":39.1401,"longitude":-86.5083}},{"id":"324","start":"2019-10-26T16:57:29.784Z","end":"2019-10-26T16:57:32.152Z","person":{"id":"324","icon":"square","color":"#55D4D2","ageGroup":"Pre-Teen","favoriteActivity":"Sports","height":58,"zipCode":"47401","state":"IN","latitude":39.1401,"longitude":-86.5083}},{"id":"323","start":"2019-10-26T16:56:40.831Z","end":"2019-10-26T16:56:42.968Z","person":{"id":"323","icon":"triangle-up","color":"#0707D2","ageGroup":"Adult","favoriteActivity":"Sports","height":72,"zipCode":"47923","state":"IN","latitude":40.6011,"longitude":-86.8753}},{"id":"322","start":"2019-10-26T16:55:52.669Z","end":"2019-10-26T16:55:55.343Z","person":{"id":"322","icon":"square","color":"#D3D406","ageGroup":"Pre-Teen","favoriteActivity":"Cooking","height":60,"zipCode":"47401","state":"IN","latitude":39.1401,"longitude":-86.5083}},{"id":"321","start":"2019-10-26T16:55:00.759Z","end":"2019-10-26T16:55:03.330Z","person":{"id":"321","icon":"square","color":"#55D4D2","ageGroup":null,"favoriteActivity":"Sports","height":58,"zipCode":"47923","state":"IN","latitude":40.6011,"longitude":-86.8753}},{"id":"320","start":"2019-10-26T16:54:16.224Z","end":"2019-10-26T16:54:18.697Z","person":{"id":"320","icon":"square","color":"#D36E44","ageGroup":"Kid","favoriteActivity":"Sports","height":55,"zipCode":"47401","state":"IN","latitude":39.1401,"longitude":-86.5083}},{"id":"319","start":"2019-10-26T16:53:14.228Z","end":"2019-10-26T16:53:27.892Z","person":{"id":"319","icon":"square","color":"#D3D406","ageGroup":"Pre-Teen","favoriteActivity":"Cooking","height":59,"zipCode":"47408","state":"IN","latitude":39.2303,"longitude":-86.4692}},{"id":"318","start":"2019-10-26T16:52:17.737Z","end":"2019-10-26T16:52:20.797Z","person":{"id":"318","icon":"square","color":"#0707D2","ageGroup":"Kid","favoriteActivity":"Other","height":58,"zipCode":"47923","state":"IN","latitude":40.6011,"longitude":-86.8753}},{"id":"317","start":"2019-10-26T16:51:09.154Z","end":"2019-10-26T16:51:11.977Z","person":{"id":"317","icon":"cross","color":"#0707D2","ageGroup":"Kid","favoriteActivity":"Sports","height":50,"zipCode":"47923","state":"IN","latitude":40.6011,"longitude":-86.8753}},{"id":"316","start":"2019-10-26T16:50:11.229Z","end":"2019-10-26T16:50:14.062Z","person":{"id":"316","icon":"square","color":"#55D4D2","ageGroup":"Teen","favoriteActivity":"Cooking","height":65,"zipCode":"46077","state":"IN","latitude":39.9561,"longitude":-86.2767}},{"id":"315","start":"2019-10-26T16:49:03.277Z","end":"2019-10-26T16:49:14.241Z","person":{"id":"315","icon":"star","color":"#D372D2","ageGroup":"Teen","favoriteActivity":"Sports","height":65,"zipCode":"46077","state":"IN","latitude":39.9561,"longitude":-86.2767}},{"id":"314","start":"2019-10-26T16:47:08.000Z","end":null,"person":{"id":"314","icon":"star","color":"#D30706","ageGroup":"Kid","favoriteActivity":"Sports","height":46,"zipCode":"47401","state":"IN","latitude":39.1401,"longitude":-86.5083}},{"id":"313","start":"2019-10-26T16:46:14.579Z","end":"2019-10-26T16:46:18.277Z","person":{"id":"313","icon":"star","color":"#D39827","ageGroup":"Kid","favoriteActivity":"Sports","height":43,"zipCode":"47401","state":"IN","latitude":39.1401,"longitude":-86.5083}},{"id":"312","start":"2019-10-26T16:44:09.387Z","end":null,"person":{"id":"312","icon":"star","color":"#55D4D2","ageGroup":"Kid","favoriteActivity":"Sports","height":48,"zipCode":"47401","state":"IN","latitude":39.1401,"longitude":-86.5083}},{"id":"311","start":"2019-10-26T16:38:47.213Z","end":"2019-10-26T16:38:50.585Z","person":{"id":"311","icon":"diamond","color":"#0707D2","ageGroup":"Kid","favoriteActivity":"Gaming","height":51,"zipCode":"46160","state":"IN","latitude":39.3628,"longitude":-86.2803}},{"id":"310","start":"2019-10-26T16:37:39.594Z","end":"2019-10-26T16:37:42.529Z","person":{"id":"310","icon":"square","color":"#33820D","ageGroup":"Pre-Teen","favoriteActivity":"Sports","height":55,"zipCode":"46160","state":"IN","latitude":39.3628,"longitude":-86.2803}},{"id":"309","start":"2019-10-26T16:35:57.829Z","end":"2019-10-26T16:36:01.460Z","person":{"id":"309","icon":"diamond","color":"#D39827","ageGroup":"Kid","favoriteActivity":"Art","height":52,"zipCode":"47408","state":"IN","latitude":39.2303,"longitude":-86.4692}},{"id":"308","start":"2019-10-26T16:31:50.760Z","end":"2019-10-26T16:31:52.576Z","person":{"id":"308","icon":"star","color":"#D30706","ageGroup":"Teen","favoriteActivity":"Sports","height":57,"zipCode":"46228","state":"IN","latitude":39.8462,"longitude":-86.1951}},{"id":"307","start":"2019-10-26T16:31:10.926Z","end":"2019-10-26T16:31:19.321Z","person":{"id":"307","icon":"star","color":"#D30706","ageGroup":"Teen","favoriteActivity":"Art","height":51,"zipCode":"46260","state":"IN","latitude":39.8977,"longitude":-86.1797}},{"id":"306","start":"2019-10-26T16:30:04.160Z","end":null,"person":{"id":"306","icon":"star","color":"#D30706","ageGroup":"Teen","favoriteActivity":"Cooking","height":51,"zipCode":"46260","state":"IN","latitude":39.8977,"longitude":-86.1797}},{"id":"305","start":"2019-10-26T16:29:04.005Z","end":"2019-10-26T16:29:06.092Z","person":{"id":"305","icon":"star","color":"#D30706","ageGroup":"Teen","favoriteActivity":"Art","height":48,"zipCode":"46260","state":"IN","latitude":39.8977,"longitude":-86.1797}},{"id":"304","start":"2019-10-26T16:28:20.521Z","end":"2019-10-26T16:28:26.792Z","person":{"id":"304","icon":"star","color":"#D30706","ageGroup":"Teen","favoriteActivity":"Art","height":49,"zipCode":"46260","state":"IN","latitude":39.8977,"longitude":-86.1797}},{"id":"303","start":"2019-10-26T16:27:42.366Z","end":"2019-10-26T16:27:44.260Z","person":{"id":"303","icon":"star","color":"#0707D2","ageGroup":"Teen","favoriteActivity":"Sports","height":69,"zipCode":"46228","state":"IN","latitude":39.8462,"longitude":-86.1951}},{"id":"302","start":"2019-10-26T16:27:02.227Z","end":"2019-10-26T16:27:04.680Z","person":{"id":"302","icon":"star","color":"#0707D2","ageGroup":"Teen","favoriteActivity":"Sports","height":58,"zipCode":"46260","state":"IN","latitude":39.8977,"longitude":-86.1797}},{"id":"301","start":"2019-10-26T16:26:02.934Z","end":"2019-10-26T16:26:05.459Z","person":{"id":"301","icon":"star","color":"#0707D2","ageGroup":"Kid","favoriteActivity":"Gaming","height":59,"zipCode":"47401","state":"IN","latitude":39.1401,"longitude":-86.5083}},{"id":"300","start":"2019-10-26T16:24:57.186Z","end":"2019-10-26T16:24:59.641Z","person":{"id":"300","icon":"star","color":"#33820D","ageGroup":"Pre-Teen","favoriteActivity":"Sports","height":63,"zipCode":"47401","state":"IN","latitude":39.1401,"longitude":-86.5083}},{"id":"299","start":"2019-10-26T16:22:12.821Z","end":"2019-10-26T16:22:16.169Z","person":{"id":"299","icon":"star","color":"#D30706","ageGroup":"Teen","favoriteActivity":"Art","height":66,"zipCode":"47401","state":"IN","latitude":39.1401,"longitude":-86.5083}},{"id":"298","start":"2019-10-26T16:21:21.339Z","end":"2019-10-26T16:21:25.650Z","person":{"id":"298","icon":"star","color":"#D30706","ageGroup":"Teen","favoriteActivity":"Art","height":64,"zipCode":"47401","state":"IN","latitude":39.1401,"longitude":-86.5083}},{"id":"297","start":"2019-10-26T16:20:32.087Z","end":"2019-10-26T16:20:34.439Z","person":{"id":"297","icon":"triangle-up","color":"#55D4D2","ageGroup":"Teen","favoriteActivity":"Sports","height":68,"zipCode":"46228","state":"IN","latitude":39.8462,"longitude":-86.1951}},{"id":"296","start":"2019-10-26T16:18:17.939Z","end":"2019-10-26T16:18:20.774Z","person":{"id":"296","icon":"star","color":"#D30706","ageGroup":"Adult","favoriteActivity":"Cooking","height":72,"zipCode":"47401","state":"IN","latitude":39.1401,"longitude":-86.5083}},{"id":"295","start":"2019-10-26T16:17:20.736Z","end":"2019-10-26T16:17:24.134Z","person":{"id":"295","icon":"star","color":"#55D4D2","ageGroup":"Adult","favoriteActivity":"Cooking","height":72,"zipCode":"47401","state":"IN","latitude":39.1401,"longitude":-86.5083}},{"id":"294","start":"2019-10-26T16:16:03.867Z","end":"2019-10-26T16:16:07.062Z","person":{"id":"294","icon":"star","color":"#8E1BCE","ageGroup":"Kid","favoriteActivity":"Cooking","height":45,"zipCode":"47401","state":"IN","latitude":39.1401,"longitude":-86.5083}},{"id":"293","start":"2019-10-26T16:14:26.593Z","end":"2019-10-26T16:14:33.042Z","person":{"id":"293","icon":"star","color":"#8E1BCE","ageGroup":"Pre-Teen","favoriteActivity":"Sports","height":58,"zipCode":"47401","state":"IN","latitude":39.1401,"longitude":-86.5083}},{"id":"292","start":"2019-10-26T16:08:57.984Z","end":"2019-10-26T16:09:02.966Z","person":{"id":"292","icon":"star","color":"#0707D2","ageGroup":"Kid","favoriteActivity":"Art","height":42,"zipCode":"47401","state":"IN","latitude":39.1401,"longitude":-86.5083}},{"id":"291","start":"2019-10-26T16:07:15.611Z","end":"2019-10-26T16:07:19.601Z","person":{"id":"291","icon":"cross","color":"#8E1BCE","ageGroup":"Kid","favoriteActivity":"Art","height":51,"zipCode":"47403","state":"IN","latitude":39.1263,"longitude":-86.5769}},{"id":"290","start":"2019-10-26T16:05:46.660Z","end":"2019-10-26T16:05:50.636Z","person":{"id":"290","icon":"star","color":"#8E1BCE","ageGroup":"Kid","favoriteActivity":"Art","height":51,"zipCode":"47403","state":"IN","latitude":39.1263,"longitude":-86.5769}},{"id":"289","start":"2019-10-26T16:04:21.872Z","end":"2019-10-26T16:04:23.813Z","person":{"id":"289","icon":"cross","color":"#9B180F","ageGroup":"Teen","favoriteActivity":"Sports","height":62,"zipCode":"47529","state":"IN","latitude":38.8772,"longitude":-87.085}},{"id":"288","start":"2019-10-26T16:02:52.920Z","end":"2019-10-26T16:02:57.355Z","person":{"id":"288","icon":"diamond","color":"#33820D","ageGroup":"Kid","favoriteActivity":"Cooking","height":40,"zipCode":"46202","state":"IN","latitude":39.7851,"longitude":-86.1595}},{"id":"287","start":"2019-10-26T16:01:36.088Z","end":"2019-10-26T16:01:38.801Z","person":{"id":"287","icon":"diamond","color":"#8E1BCE","ageGroup":"Kid","favoriteActivity":"Other","height":50,"zipCode":"46202","state":"IN","latitude":39.7851,"longitude":-86.1595}},{"id":"286","start":"2019-10-26T16:00:42.305Z","end":"2019-10-26T16:00:45.115Z","person":{"id":"286","icon":"triangle-up","color":"#8E1BCE","ageGroup":"Pre-Teen","favoriteActivity":"Gaming","height":56,"zipCode":"46202","state":"IN","latitude":39.7851,"longitude":-86.1595}},{"id":"285","start":"2019-10-26T15:59:44.050Z","end":"2019-10-26T15:59:45.789Z","person":{"id":"285","icon":"triangle-up","color":"#0707D2","ageGroup":"Adult","favoriteActivity":"Sports","height":70,"zipCode":"47401","state":"IN","latitude":39.1401,"longitude":-86.5083}},{"id":"284","start":"2019-10-26T15:58:56.547Z","end":"2019-10-26T15:59:03.339Z","person":{"id":"284","icon":"star","color":"#D30706","ageGroup":"Kid","favoriteActivity":"Art","height":47,"zipCode":"47401","state":"IN","latitude":39.1401,"longitude":-86.5083}},{"id":"283","start":"2019-10-26T15:56:14.075Z","end":"2019-10-26T15:56:17.393Z","person":{"id":"283","icon":"star","color":"#33820D","ageGroup":"Adult","favoriteActivity":"Gaming","height":70,"zipCode":"47401","state":"IN","latitude":39.1401,"longitude":-86.5083}},{"id":"282","start":"2019-10-26T15:55:10.622Z","end":"2019-10-26T15:55:14.062Z","person":{"id":"282","icon":"diamond","color":"#55D4D2","ageGroup":"Kid","favoriteActivity":"Art","height":50,"zipCode":"46112","state":"IN","latitude":39.8466,"longitude":-86.3869}},{"id":"281","start":"2019-10-26T15:54:18.289Z","end":"2019-10-26T15:54:27.081Z","person":{"id":"281","icon":"diamond","color":"#55D4D2","ageGroup":null,"favoriteActivity":"Art","height":50,"zipCode":"46112","state":"IN","latitude":39.8466,"longitude":-86.3869}},{"id":"280","start":"2019-10-26T15:53:10.829Z","end":"2019-10-26T15:53:13.759Z","person":{"id":"280","icon":"cross","color":"#D3D406","ageGroup":"Teen","favoriteActivity":"Gaming","height":67,"zipCode":"46112","state":"IN","latitude":39.8466,"longitude":-86.3869}},{"id":"279","start":"2019-10-26T15:52:02.948Z","end":"2019-10-26T15:52:05.894Z","person":{"id":"279","icon":"square","color":"#0707D2","ageGroup":"Kid","favoriteActivity":"Sports","height":55,"zipCode":"47401","state":"IN","latitude":39.1401,"longitude":-86.5083}},{"id":"278","start":"2019-10-26T15:50:57.683Z","end":"2019-10-26T15:51:00.426Z","person":{"id":"278","icon":"diamond","color":"#D372D2","ageGroup":"Pre-Teen","favoriteActivity":"Sports","height":62,"zipCode":"47401","state":"IN","latitude":39.1401,"longitude":-86.5083}},{"id":"277","start":"2019-10-26T15:49:54.803Z","end":"2019-10-26T15:50:00.114Z","person":{"id":"277","icon":"star","color":"#8E1BCE","ageGroup":"Kid","favoriteActivity":"Art","height":37,"zipCode":"47401","state":"IN","latitude":39.1401,"longitude":-86.5083}},{"id":"276","start":"2019-10-26T15:47:17.369Z","end":"2019-10-26T15:47:20.872Z","person":{"id":"276","icon":"star","color":"#8E1BCE","ageGroup":"Kid","favoriteActivity":"Art","height":44,"zipCode":"47401","state":"IN","latitude":39.1401,"longitude":-86.5083}},{"id":"275","start":"2019-10-26T15:46:16.221Z","end":"2019-10-26T15:46:18.443Z","person":{"id":"275","icon":"square","color":"#55D4D2","ageGroup":"Pre-Teen","favoriteActivity":"Other","height":55,"zipCode":"47401","state":"IN","latitude":39.1401,"longitude":-86.5083}},{"id":"274","start":"2019-10-26T15:45:02.213Z","end":"2019-10-26T15:45:04.612Z","person":{"id":"274","icon":"star","color":"#D3D406","ageGroup":"Adult","favoriteActivity":"Sports","height":61,"zipCode":"47401","state":"IN","latitude":39.1401,"longitude":-86.5083}},{"id":"273","start":"2019-10-26T15:43:16.674Z","end":"2019-10-26T15:43:19.400Z","person":{"id":"273","icon":"star","color":"#33820D","ageGroup":"Adult","favoriteActivity":"Gaming","height":70,"zipCode":"47401","state":"IN","latitude":39.1401,"longitude":-86.5083}},{"id":"272","start":"2019-10-26T15:42:41.945Z","end":"2019-10-26T15:42:44.929Z","person":{"id":"272","icon":"diamond","color":"#D372D2","ageGroup":"Pre-Teen","favoriteActivity":"Sports","height":58,"zipCode":"47401","state":"IN","latitude":39.1401,"longitude":-86.5083}},{"id":"271","start":"2019-10-26T15:42:10.825Z","end":"2019-10-26T15:42:13.654Z","person":{"id":"271","icon":"diamond","color":"#D372D2","ageGroup":"Pre-Teen","favoriteActivity":"Cooking","height":58,"zipCode":"47401","state":"IN","latitude":39.1401,"longitude":-86.5083}},{"id":"270","start":"2019-10-26T15:41:34.605Z","end":"2019-10-26T15:41:37.101Z","person":{"id":"270","icon":"diamond","color":"#D372D2","ageGroup":"Pre-Teen","favoriteActivity":"Sports","height":57,"zipCode":"47401","state":"IN","latitude":39.1401,"longitude":-86.5083}},{"id":"269","start":"2019-10-26T15:40:30.373Z","end":"2019-10-26T15:40:36.544Z","person":{"id":"269","icon":"star","color":"#D39827","ageGroup":"Kid","favoriteActivity":"Gaming","height":41,"zipCode":"47401","state":"IN","latitude":39.1401,"longitude":-86.5083}},{"id":"268","start":"2019-10-26T15:39:31.968Z","end":"2019-10-26T15:39:35.451Z","person":{"id":"268","icon":"star","color":"#D372D2","ageGroup":"Pre-Teen","favoriteActivity":"Gaming","height":56,"zipCode":"47401","state":"IN","latitude":39.1401,"longitude":-86.5083}},{"id":"267","start":"2019-10-26T15:38:18.349Z","end":"2019-10-26T15:38:21.215Z","person":{"id":"267","icon":"diamond","color":"#8E1BCE","ageGroup":"Kid","favoriteActivity":"Other","height":50,"zipCode":"47401","state":"IN","latitude":39.1401,"longitude":-86.5083}},{"id":"266","start":"2019-10-26T15:37:25.164Z","end":"2019-10-26T15:37:28.325Z","person":{"id":"266","icon":"cross","color":"#0707D2","ageGroup":"Pre-Teen","favoriteActivity":"Sports","height":57,"zipCode":"47401","state":"IN","latitude":39.1401,"longitude":-86.5083}},{"id":"265","start":"2019-10-26T15:35:57.174Z","end":"2019-10-26T15:36:00.005Z","person":{"id":"265","icon":"cross","color":"#33820D","ageGroup":"Teen","favoriteActivity":"Sports","height":61,"zipCode":"46143","state":"IN","latitude":39.596,"longitude":-86.1309}},{"id":"264","start":"2019-10-26T15:35:05.640Z","end":"2019-10-26T15:35:07.399Z","person":{"id":"264","icon":"star","color":"#D372D2","ageGroup":"Teen","favoriteActivity":"Sports","height":60,"zipCode":"46143","state":"IN","latitude":39.596,"longitude":-86.1309}},{"id":"263","start":"2019-10-26T15:34:03.723Z","end":"2019-10-26T15:34:07.594Z","person":{"id":"263","icon":"diamond","color":"#D372D2","ageGroup":"Teen","favoriteActivity":"Sports","height":59,"zipCode":"46143","state":"IN","latitude":39.596,"longitude":-86.1309}},{"id":"262","start":"2019-10-26T15:33:10.057Z","end":"2019-10-26T15:33:12.454Z","person":{"id":"262","icon":"square","color":"#D3D406","ageGroup":"Teen","favoriteActivity":"Sports","height":63,"zipCode":"46143","state":"IN","latitude":39.596,"longitude":-86.1309}},{"id":"261","start":"2019-10-26T15:32:13.864Z","end":"2019-10-26T15:32:16.909Z","person":{"id":"261","icon":"star","color":"#0707D2","ageGroup":"Kid","favoriteActivity":"Sports","height":50,"zipCode":"47404","state":"IN","latitude":39.195,"longitude":-86.5757}},{"id":"260","start":"2019-10-26T15:30:45.093Z","end":"2019-10-26T15:30:47.973Z","person":{"id":"260","icon":"diamond","color":"#D372D2","ageGroup":"Adult","favoriteActivity":"Sports","height":67,"zipCode":"47401","state":"IN","latitude":39.1401,"longitude":-86.5083}},{"id":"259","start":"2019-10-26T15:30:13.243Z","end":"2019-10-26T15:30:15.978Z","person":{"id":"259","icon":"diamond","color":"#D372D2","ageGroup":"Adult","favoriteActivity":"Sports","height":67,"zipCode":"47401","state":"IN","latitude":39.1401,"longitude":-86.5083}},{"id":"258","start":"2019-10-26T15:28:51.081Z","end":"2019-10-26T15:28:54.753Z","person":{"id":"258","icon":"diamond","color":"#D372D2","ageGroup":"Adult","favoriteActivity":"Sports","height":64,"zipCode":"47401","state":"IN","latitude":39.1401,"longitude":-86.5083}},{"id":"257","start":"2019-10-26T15:28:12.139Z","end":"2019-10-26T15:28:15.887Z","person":{"id":"257","icon":"diamond","color":"#55D4D2","ageGroup":"Adult","favoriteActivity":"Gaming","height":64,"zipCode":"47401","state":"IN","latitude":39.1401,"longitude":-86.5083}},{"id":"256","start":"2019-10-26T15:27:08.897Z","end":"2019-10-26T15:27:11.209Z","person":{"id":"256","icon":"cross","color":"#D30706","ageGroup":"Pre-Teen","favoriteActivity":"Sports","height":60,"zipCode":"47421","state":"IN","latitude":38.8729,"longitude":-86.4871}},{"id":"255","start":"2019-10-26T15:26:23.113Z","end":"2019-10-26T15:26:25.384Z","person":{"id":"255","icon":"cross","color":"#33820D","ageGroup":"Pre-Teen","favoriteActivity":"Other","height":58,"zipCode":"47421","state":"IN","latitude":38.8729,"longitude":-86.4871}},{"id":"254","start":"2019-10-26T15:25:43.892Z","end":"2019-10-26T15:25:46.398Z","person":{"id":"254","icon":"cross","color":"#D30706","ageGroup":"Pre-Teen","favoriteActivity":"Sports","height":60,"zipCode":"47421","state":"IN","latitude":38.8729,"longitude":-86.4871}},{"id":"253","start":"2019-10-26T15:24:37.650Z","end":"2019-10-26T15:24:40.430Z","person":{"id":"253","icon":"diamond","color":"#D39827","ageGroup":"Pre-Teen","favoriteActivity":"Gaming","height":52,"zipCode":"47421","state":"IN","latitude":38.8729,"longitude":-86.4871}},{"id":"252","start":"2019-10-26T15:22:22.608Z","end":"2019-10-26T15:22:25.080Z","person":{"id":"252","icon":"cross","color":"#33820D","ageGroup":"Pre-Teen","favoriteActivity":"Other","height":58,"zipCode":"47421","state":"IN","latitude":38.8729,"longitude":-86.4871}},{"id":"251","start":"2019-10-26T15:21:36.477Z","end":"2019-10-26T15:21:39.588Z","person":{"id":"251","icon":"star","color":"#D30706","ageGroup":"Pre-Teen","favoriteActivity":"Gaming","height":52,"zipCode":"47421","state":"IN","latitude":38.8729,"longitude":-86.4871}},{"id":"250","start":"2019-10-26T15:20:08.432Z","end":"2019-10-26T15:20:11.582Z","person":{"id":"250","icon":"diamond","color":"#8E1BCE","ageGroup":"Pre-Teen","favoriteActivity":"Sports","height":58,"zipCode":"47401","state":"IN","latitude":39.1401,"longitude":-86.5083}},{"id":"249","start":"2019-10-26T15:19:09.000Z","end":"2019-10-26T15:19:11.311Z","person":{"id":"249","icon":"cross","color":"#33820D","ageGroup":"Pre-Teen","favoriteActivity":"Other","height":58,"zipCode":"47421","state":"IN","latitude":38.8729,"longitude":-86.4871}},{"id":"248","start":"2019-10-26T15:18:28.691Z","end":"2019-10-26T15:18:31.066Z","person":{"id":"248","icon":"cross","color":"#33820D","ageGroup":"Pre-Teen","favoriteActivity":"Other","height":58,"zipCode":"47421","state":"IN","latitude":38.8729,"longitude":-86.4871}},{"id":"247","start":"2019-10-26T15:17:05.793Z","end":"2019-10-26T15:17:08.772Z","person":{"id":"247","icon":"diamond","color":"#8E1BCE","ageGroup":"Pre-Teen","favoriteActivity":"Sports","height":58,"zipCode":"47401","state":"IN","latitude":39.1401,"longitude":-86.5083}},{"id":"246","start":"2019-10-26T15:16:17.261Z","end":"2019-10-26T15:16:20.191Z","person":{"id":"246","icon":"diamond","color":"#8E1BCE","ageGroup":"Adult","favoriteActivity":"Sports","height":64,"zipCode":"47401","state":"IN","latitude":39.1401,"longitude":-86.5083}},{"id":"245","start":"2019-10-26T15:15:34.569Z","end":"2019-10-26T15:15:37.185Z","person":{"id":"245","icon":"star","color":"#55D4D2","ageGroup":"Pre-Teen","favoriteActivity":"Sports","height":58,"zipCode":"47401","state":"IN","latitude":39.1401,"longitude":-86.5083}},{"id":"244","start":"2019-10-26T15:14:30.638Z","end":"2019-10-26T15:14:32.940Z","person":{"id":"244","icon":"triangle-up","color":"#0707D2","ageGroup":"Pre-Teen","favoriteActivity":"Gaming","height":64,"zipCode":"47401","state":"IN","latitude":39.1401,"longitude":-86.5083}},{"id":"243","start":"2019-10-26T15:13:33.644Z","end":"2019-10-26T15:13:37.979Z","person":{"id":"243","icon":"cross","color":"#D30706","ageGroup":"Kid","favoriteActivity":"Art","height":45,"zipCode":"47232","state":"IN","latitude":39.1243,"longitude":-85.8153}},{"id":"242","start":"2019-10-26T15:12:39.171Z","end":"2019-10-26T15:12:41.443Z","person":{"id":"242","icon":"diamond","color":"#D3D406","ageGroup":"Kid","favoriteActivity":"Sports","height":58,"zipCode":"47401","state":"IN","latitude":39.1401,"longitude":-86.5083}},{"id":"241","start":"2019-10-26T15:11:14.477Z","end":"2019-10-26T15:11:21.344Z","person":{"id":"241","icon":"diamond","color":"#0707D2","ageGroup":"Kid","favoriteActivity":"Sports","height":52,"zipCode":"47401","state":"IN","latitude":39.1401,"longitude":-86.5083}},{"id":"240","start":"2019-10-26T15:08:55.384Z","end":"2019-10-26T15:08:59.743Z","person":{"id":"240","icon":"cross","color":"#33820D","ageGroup":"Kid","favoriteActivity":"Art","height":45,"zipCode":"47232","state":"IN","latitude":39.1243,"longitude":-85.8153}},{"id":"239","start":"2019-10-26T15:07:19.490Z","end":"2019-10-26T15:07:21.747Z","person":{"id":"239","icon":"diamond","color":"#D3D406","ageGroup":"Kid","favoriteActivity":"Sports","height":58,"zipCode":"47232","state":"IN","latitude":39.1243,"longitude":-85.8153}},{"id":"238","start":"2019-10-26T15:05:31.018Z","end":"2019-10-26T15:05:34.316Z","person":{"id":"238","icon":"star","color":"#8E1BCE","ageGroup":null,"favoriteActivity":"Gaming","height":54,"zipCode":"47403","state":"IN","latitude":39.1263,"longitude":-86.5769}},{"id":"237","start":"2019-10-26T15:03:54.250Z","end":"2019-10-26T15:04:09.401Z","person":{"id":"237","icon":"diamond","color":"#33820D","ageGroup":"Pre-Teen","favoriteActivity":"Art","height":58,"zipCode":"47403","state":"IN","latitude":39.1263,"longitude":-86.5769}},{"id":"236","start":"2019-10-26T15:02:16.889Z","end":"2019-10-26T15:02:16.915Z","person":{"id":"236","icon":"diamond","color":"#33820D","ageGroup":"Kid","favoriteActivity":"Art","height":59,"zipCode":"47401","state":"IN","latitude":39.1401,"longitude":-86.5083}},{"id":"235","start":"2019-10-26T15:00:17.323Z","end":"2019-10-26T15:00:20.080Z","person":{"id":"235","icon":"diamond","color":"#33820D","ageGroup":"Kid","favoriteActivity":"Art","height":60,"zipCode":"47401","state":"IN","latitude":39.1401,"longitude":-86.5083}},{"id":"234","start":"2019-10-26T14:59:08.641Z","end":"2019-10-26T14:59:11.212Z","person":{"id":"234","icon":"triangle-up","color":"#8E1BCE","ageGroup":"Pre-Teen","favoriteActivity":"Sports","height":57,"zipCode":"46052","state":"IN","latitude":40.0449,"longitude":-86.4641}},{"id":"233","start":"2019-10-26T14:58:20.067Z","end":"2019-10-26T14:58:22.585Z","person":{"id":"233","icon":"star","color":"#0707D2","ageGroup":"Kid","favoriteActivity":"Art","height":57,"zipCode":"46052","state":"IN","latitude":40.0449,"longitude":-86.4641}},{"id":"232","start":"2019-10-26T14:57:22.879Z","end":"2019-10-26T14:57:26.334Z","person":{"id":"232","icon":"square","color":"#55D4D2","ageGroup":"Pre-Teen","favoriteActivity":"Other","height":60,"zipCode":"47401","state":"IN","latitude":39.1401,"longitude":-86.5083}},{"id":"231","start":"2019-10-26T14:56:18.982Z","end":"2019-10-26T14:56:22.044Z","person":{"id":"231","icon":"cross","color":"#D30706","ageGroup":"Pre-Teen","favoriteActivity":"Other","height":48,"zipCode":"47401","state":"IN","latitude":39.1401,"longitude":-86.5083}},{"id":"230","start":"2019-10-26T14:55:04.319Z","end":"2019-10-26T14:55:07.277Z","person":{"id":"230","icon":"cross","color":"#55D4D2","ageGroup":"Teen","favoriteActivity":"Sports","height":68,"zipCode":"47172","state":"IN","latitude":38.4046,"longitude":-85.788}},{"id":"229","start":"2019-10-26T14:54:01.453Z","end":"2019-10-26T14:54:11.513Z","person":{"id":"229","icon":"diamond","color":"#55D4D2","ageGroup":"Teen","favoriteActivity":"Sports","height":67,"zipCode":"47172","state":"IN","latitude":38.4046,"longitude":-85.788}},{"id":"228","start":"2019-10-26T14:52:52.493Z","end":"2019-10-26T14:52:55.642Z","person":{"id":"228","icon":"star","color":"#D372D2","ageGroup":"Teen","favoriteActivity":"Other","height":65,"zipCode":"47126","state":"IN","latitude":38.5398,"longitude":-85.7734}},{"id":"227","start":"2019-10-26T14:50:09.531Z","end":"2019-10-26T14:50:12.245Z","person":{"id":"227","icon":"diamond","color":"#D30706","ageGroup":null,"favoriteActivity":null,"height":49,"zipCode":"47170","state":"IN","latitude":38.6885,"longitude":-85.7987}},{"id":"226","start":"2019-10-26T14:49:06.186Z","end":"2019-10-26T14:49:08.886Z","person":{"id":"226","icon":"cross","color":"#33820D","ageGroup":"Pre-Teen","favoriteActivity":null,"height":57,"zipCode":"47170","state":"IN","latitude":38.6885,"longitude":-85.7987}},{"id":"225","start":"2019-10-26T14:47:31.691Z","end":"2019-10-26T14:47:35.406Z","person":{"id":"225","icon":"star","color":"#33820D","ageGroup":"Adult","favoriteActivity":"Gaming","height":70,"zipCode":"47401","state":"IN","latitude":39.1401,"longitude":-86.5083}},{"id":"224","start":"2019-10-26T14:45:29.967Z","end":"2019-10-26T14:45:32.374Z","person":{"id":"224","icon":"triangle-up","color":"#9B180F","ageGroup":"Pre-Teen","favoriteActivity":"Sports","height":57,"zipCode":"47408","state":"IN","latitude":39.2303,"longitude":-86.4692}},{"id":"223","start":"2019-10-26T14:44:31.379Z","end":"2019-10-26T14:44:35.419Z","person":{"id":"223","icon":"diamond","color":"#0707D2","ageGroup":"Adult","favoriteActivity":"Sports","height":69,"zipCode":"47408","state":"IN","latitude":39.2303,"longitude":-86.4692}},{"id":"222","start":"2019-10-26T14:43:32.558Z","end":"2019-10-26T14:43:35.146Z","person":{"id":"222","icon":"star","color":"#55D4D2","ageGroup":"Kid","favoriteActivity":"Sports","height":null,"zipCode":"47408","state":"IN","latitude":39.2303,"longitude":-86.4692}},{"id":"221","start":"2019-10-26T14:42:45.075Z","end":"2019-10-26T14:42:47.643Z","person":{"id":"221","icon":"triangle-up","color":"#9B180F","ageGroup":"Pre-Teen","favoriteActivity":"Sports","height":57,"zipCode":"47408","state":"IN","latitude":39.2303,"longitude":-86.4692}},{"id":"220","start":"2019-10-26T14:41:30.915Z","end":"2019-10-26T14:41:43.757Z","person":{"id":"220","icon":"star","color":"#D372D2","ageGroup":"Kid","favoriteActivity":"Cooking","height":46,"zipCode":"47408","state":"IN","latitude":39.2303,"longitude":-86.4692}},{"id":"219","start":"2019-10-26T14:40:34.526Z","end":"2019-10-26T14:40:42.213Z","person":{"id":"219","icon":"star","color":"#D372D2","ageGroup":"Kid","favoriteActivity":"Cooking","height":46,"zipCode":"47408","state":"IN","latitude":39.2303,"longitude":-86.4692}},{"id":"218","start":"2019-10-26T14:39:23.290Z","end":"2019-10-26T14:39:26.298Z","person":{"id":"218","icon":"star","color":"#D372D2","ageGroup":"Kid","favoriteActivity":"Cooking","height":52,"zipCode":"47408","state":"IN","latitude":39.2303,"longitude":-86.4692}},{"id":"217","start":"2019-10-26T14:38:13.314Z","end":"2019-10-26T14:38:16.112Z","person":{"id":"217","icon":"star","color":"#55D4D2","ageGroup":"Kid","favoriteActivity":"Sports","height":52,"zipCode":"47408","state":"IN","latitude":39.2303,"longitude":-86.4692}},{"id":"216","start":"2019-10-26T14:37:07.702Z","end":"2019-10-26T14:37:10.637Z","person":{"id":"216","icon":"triangle-up","color":"#9B180F","ageGroup":"Pre-Teen","favoriteActivity":"Sports","height":57,"zipCode":"47408","state":"IN","latitude":39.2303,"longitude":-86.4692}},{"id":"215","start":"2019-10-26T14:34:22.203Z","end":"2019-10-26T14:34:24.721Z","person":{"id":"215","icon":"diamond","color":"#D30706","ageGroup":"Pre-Teen","favoriteActivity":"Gaming","height":60,"zipCode":"46225","state":"IN","latitude":39.7406,"longitude":-86.1569}},{"id":"214","start":"2019-10-26T14:32:47.415Z","end":"2019-10-26T14:32:50.175Z","person":{"id":"214","icon":"star","color":"#D30706","ageGroup":"Kid","favoriteActivity":"Gaming","height":51,"zipCode":"47401","state":"IN","latitude":39.1401,"longitude":-86.5083}},{"id":"213","start":"2019-10-26T14:32:01.680Z","end":"2019-10-26T14:32:07.155Z","person":{"id":"213","icon":"star","color":"#D30706","ageGroup":"Kid","favoriteActivity":"Gaming","height":51,"zipCode":"47401","state":"IN","latitude":39.1401,"longitude":-86.5083}},{"id":"212","start":"2019-10-26T14:31:12.786Z","end":"2019-10-26T14:31:16.334Z","person":{"id":"212","icon":"star","color":"#D3D406","ageGroup":"Adult","favoriteActivity":"Sports","height":64,"zipCode":"47403","state":"IN","latitude":39.1263,"longitude":-86.5769}},{"id":"211","start":"2019-10-26T14:30:04.791Z","end":"2019-10-26T14:30:07.567Z","person":{"id":"211","icon":"cross","color":"#D30706","ageGroup":"Pre-Teen","favoriteActivity":"Gaming","height":58,"zipCode":"47403","state":"IN","latitude":39.1263,"longitude":-86.5769}},{"id":"210","start":"2019-10-26T14:29:03.774Z","end":"2019-10-26T14:29:06.674Z","person":{"id":"210","icon":"star","color":"#0707D2","ageGroup":"Kid","favoriteActivity":"Other","height":55,"zipCode":"47403","state":"IN","latitude":39.1263,"longitude":-86.5769}},{"id":"209","start":"2019-10-26T14:27:53.931Z","end":"2019-10-26T14:27:58.423Z","person":{"id":"209","icon":"diamond","color":"#0707D2","ageGroup":"Kid","favoriteActivity":"Gaming","height":52,"zipCode":"47401","state":"IN","latitude":39.1401,"longitude":-86.5083}},{"id":"208","start":"2019-10-26T14:26:54.689Z","end":"2019-10-26T14:26:58.513Z","person":{"id":"208","icon":"triangle-up","color":"#D30706","ageGroup":"Kid","favoriteActivity":"Cooking","height":48,"zipCode":"47401","state":"IN","latitude":39.1401,"longitude":-86.5083}},{"id":"207","start":"2019-10-26T14:25:33.109Z","end":null,"person":{"id":"207","icon":"diamond","color":"#0707D2","ageGroup":"Kid","favoriteActivity":"Sports","height":52,"zipCode":"47401","state":"IN","latitude":39.1401,"longitude":-86.5083}},{"id":"206","start":"2019-10-26T14:24:43.295Z","end":"2019-10-26T14:24:52.182Z","person":{"id":"206","icon":"diamond","color":"#0707D2","ageGroup":"Kid","favoriteActivity":"Sports","height":52,"zipCode":"47401","state":"IN","latitude":39.1401,"longitude":-86.5083}},{"id":"205","start":"2019-10-26T14:23:52.807Z","end":null,"person":{"id":"205","icon":"diamond","color":"#0707D2","ageGroup":"Kid","favoriteActivity":"Sports","height":52,"zipCode":"47401","state":"IN","latitude":39.1401,"longitude":-86.5083}},{"id":"204","start":"2019-10-26T14:22:39.206Z","end":"2019-10-26T14:22:42.627Z","person":{"id":"204","icon":"star","color":"#D30706","ageGroup":"Kid","favoriteActivity":"Other","height":37,"zipCode":"47401","state":"IN","latitude":39.1401,"longitude":-86.5083}},{"id":"203","start":"2019-10-26T14:20:57.322Z","end":"2019-10-26T14:21:00.550Z","person":{"id":"203","icon":"star","color":"#33820D","ageGroup":"Adult","favoriteActivity":"Gaming","height":70,"zipCode":"47401","state":"IN","latitude":39.1401,"longitude":-86.5083}},{"id":"202","start":"2019-10-26T14:19:13.762Z","end":"2019-10-26T14:19:17.500Z","person":{"id":"202","icon":"triangle-up","color":"#D372D2","ageGroup":"Adult","favoriteActivity":"Other","height":78,"zipCode":"43333","state":"OH","latitude":40.4277,"longitude":-83.9209}},{"id":"201","start":"2019-10-26T14:18:03.629Z","end":"2019-10-26T14:18:07.659Z","person":{"id":"201","icon":"star","color":"#D372D2","ageGroup":"Adult","favoriteActivity":"Other","height":69,"zipCode":"47403","state":"IN","latitude":39.1263,"longitude":-86.5769}},{"id":"200","start":"2019-10-26T14:16:19.672Z","end":"2019-10-26T14:16:24.847Z","person":{"id":"200","icon":"triangle-up","color":"#D3D406","ageGroup":"Retired","favoriteActivity":"Cooking","height":62,"zipCode":"23113","state":"VA","latitude":37.5109,"longitude":-77.6429}},{"id":"199","start":"2019-10-26T14:15:26.855Z","end":"2019-10-26T14:15:30.382Z","person":{"id":"199","icon":"diamond","color":"#D36E44","ageGroup":"Adult","favoriteActivity":"Cooking","height":64,"zipCode":"47403","state":"IN","latitude":39.1263,"longitude":-86.5769}},{"id":"198","start":"2019-10-26T14:14:31.921Z","end":"2019-10-26T14:14:37.462Z","person":{"id":"198","icon":"star","color":"#D3D406","ageGroup":"Adult","favoriteActivity":"Other","height":63,"zipCode":"46040","state":"IN","latitude":39.9323,"longitude":-85.848}},{"id":"197","start":"2019-10-26T14:13:36.913Z","end":"2019-10-26T14:13:40.673Z","person":{"id":"197","icon":"star","color":"#D372D2","ageGroup":"Kid","favoriteActivity":"Sports","height":46,"zipCode":"46040","state":"IN","latitude":39.9323,"longitude":-85.848}},{"id":"196","start":"2019-10-26T14:12:13.810Z","end":"2019-10-26T14:12:17.557Z","person":{"id":"196","icon":"square","color":"#0707D2","ageGroup":"Adult","favoriteActivity":"Gaming","height":69,"zipCode":"47403","state":"IN","latitude":39.1263,"longitude":-86.5769}},{"id":"195","start":"2019-10-26T14:10:28.975Z","end":"2019-10-26T14:10:32.481Z","person":{"id":"195","icon":"star","color":"#33820D","ageGroup":"Adult","favoriteActivity":"Gaming","height":70,"zipCode":"47401","state":"IN","latitude":39.1401,"longitude":-86.5083}},{"id":"194","start":"2019-10-26T13:53:31.629Z","end":"2019-10-26T13:53:33.959Z","person":{"id":"194","icon":"cross","color":"#33820D","ageGroup":"Adult","favoriteActivity":"Other","height":71,"zipCode":"47403","state":"IN","latitude":39.1263,"longitude":-86.5769}},{"id":"193","start":"2019-10-26T13:51:32.405Z","end":"2019-10-26T13:51:40.361Z","person":{"id":"193","icon":"cross","color":"#0707D2","ageGroup":"Adult","favoriteActivity":"Other","height":71,"zipCode":"47403","state":"IN","latitude":39.1263,"longitude":-86.5769}},{"id":"192","start":"2019-10-26T13:49:22.563Z","end":"2019-10-26T13:49:25.662Z","person":{"id":"192","icon":"cross","color":"#33820D","ageGroup":"Adult","favoriteActivity":"Art","height":68,"zipCode":"47408","state":"IN","latitude":39.2303,"longitude":-86.4692}},{"id":"191","start":"2019-10-26T13:48:31.928Z","end":"2019-10-26T13:48:35.577Z","person":{"id":"191","icon":"star","color":"#33820D","ageGroup":"Adult","favoriteActivity":"Gaming","height":70,"zipCode":"47401","state":"IN","latitude":39.1401,"longitude":-86.5083}},{"id":"190","start":"2019-10-26T13:41:49.692Z","end":"2019-10-26T13:41:51.729Z","person":{"id":"190","icon":"triangle-up","color":"#33820D","ageGroup":"Teen","favoriteActivity":"Other","height":74,"zipCode":"47203","state":"IN","latitude":39.2301,"longitude":-85.8855}},{"id":"189","start":"2019-10-26T13:41:07.840Z","end":"2019-10-26T13:41:10.852Z","person":{"id":"189","icon":"diamond","color":"#0707D2","ageGroup":"Teen","favoriteActivity":"Other","height":70,"zipCode":"46131","state":"IN","latitude":39.4854,"longitude":-86.0608}},{"id":"188","start":"2019-10-26T13:40:05.651Z","end":"2019-10-26T13:40:08.738Z","person":{"id":"188","icon":"triangle-up","color":"#D372D2","ageGroup":"Teen","favoriteActivity":"Sports","height":62,"zipCode":"47201","state":"IN","latitude":39.2055,"longitude":-85.9317}},{"id":"187","start":"2019-10-26T13:38:16.075Z","end":"2019-10-26T13:38:19.402Z","person":{"id":"187","icon":"star","color":"#33820D","ageGroup":"Adult","favoriteActivity":"Gaming","height":70,"zipCode":"47401","state":"IN","latitude":39.1401,"longitude":-86.5083}},{"id":"186","start":"2019-10-26T13:17:00.844Z","end":"2019-10-26T13:17:03.793Z","person":{"id":"186","icon":"cross","color":"#33820D","ageGroup":"Adult","favoriteActivity":"Art","height":68,"zipCode":"47408","state":"IN","latitude":39.2303,"longitude":-86.4692}},{"id":"185","start":"2019-10-26T13:09:02.299Z","end":"2019-10-26T13:09:05.978Z","person":{"id":"185","icon":"star","color":"#33820D","ageGroup":"Adult","favoriteActivity":"Gaming","height":70,"zipCode":"47401","state":"IN","latitude":39.1401,"longitude":-86.5083}},{"id":"184","start":"2019-10-26T13:06:22.776Z","end":"2019-10-26T13:06:26.734Z","person":{"id":"184","icon":"star","color":"#33820D","ageGroup":"Adult","favoriteActivity":"Gaming","height":70,"zipCode":"47401","state":"IN","latitude":39.1401,"longitude":-86.5083}},{"id":"183","start":"2019-10-26T12:52:21.206Z","end":"2019-10-26T12:52:24.704Z","person":{"id":"183","icon":"star","color":"#33820D","ageGroup":"Adult","favoriteActivity":"Gaming","height":70,"zipCode":"47401","state":"IN","latitude":39.1401,"longitude":-86.5083}},{"id":"182","start":"2019-08-24T19:52:04.372Z","end":"2019-08-24T19:52:05.994Z","person":{"id":"182","icon":"star","color":"#55D4D2","ageGroup":"Adult","favoriteActivity":"Gaming","height":67,"zipCode":"45245","state":"OH","latitude":39.0688,"longitude":-84.2802}},{"id":"181","start":"2019-08-24T19:51:18.576Z","end":"2019-08-24T19:51:20.229Z","person":{"id":"181","icon":"triangle-up","color":"#0707D2","ageGroup":"Adult","favoriteActivity":"Gaming","height":70,"zipCode":"47403","state":"IN","latitude":39.1263,"longitude":-86.5769}},{"id":"180","start":"2019-08-24T19:48:09.775Z","end":"2019-08-24T19:48:11.031Z","person":{"id":"180","icon":"star","color":"#0707D2","ageGroup":"Kid","favoriteActivity":"Sports","height":57,"zipCode":"47401","state":"IN","latitude":39.1401,"longitude":-86.5083}},{"id":"179","start":"2019-08-24T19:47:10.458Z","end":"2019-08-24T19:47:15.485Z","person":{"id":"179","icon":null,"color":"#0707D2","ageGroup":"Kid","favoriteActivity":"Sports","height":36,"zipCode":"47401","state":"IN","latitude":39.1401,"longitude":-86.5083}},{"id":"178","start":"2019-08-24T19:46:12.843Z","end":"2019-08-24T19:46:14.691Z","person":{"id":"178","icon":"triangle-up","color":"#8E1BCE","ageGroup":"Adult","favoriteActivity":"Art","height":66,"zipCode":"47401","state":"IN","latitude":39.1401,"longitude":-86.5083}},{"id":"177","start":"2019-08-24T19:45:21.808Z","end":"2019-08-24T19:45:23.721Z","person":{"id":"177","icon":"cross","color":"#9B180F","ageGroup":"Adult","favoriteActivity":"Cooking","height":59,"zipCode":"99205","state":"WA","latitude":47.6964,"longitude":-117.4399}},{"id":"176","start":"2019-08-24T19:44:05.080Z","end":null,"person":{"id":"176","icon":"cross","color":"#9B180F","ageGroup":"Adult","favoriteActivity":"Cooking","height":59,"zipCode":"99205","state":"WA","latitude":47.6964,"longitude":-117.4399}},{"id":"175","start":"2019-08-24T19:20:05.008Z","end":null,"person":{"id":"175","icon":"diamond","color":"#0707D2","ageGroup":"Kid","favoriteActivity":"Other","height":36,"zipCode":"47401","state":"IN","latitude":39.1401,"longitude":-86.5083}},{"id":"174","start":"2019-08-24T19:19:06.400Z","end":"2019-08-24T19:19:08.721Z","person":{"id":"174","icon":"triangle-up","color":"#33820D","ageGroup":"Adult","favoriteActivity":"Cooking","height":67,"zipCode":"47401","state":"IN","latitude":39.1401,"longitude":-86.5083}},{"id":"173","start":"2019-08-24T19:17:35.144Z","end":"2019-08-24T19:17:37.070Z","person":{"id":"173","icon":"star","color":"#D372D2","ageGroup":"Kid","favoriteActivity":"Sports","height":42,"zipCode":"47401","state":"IN","latitude":39.1401,"longitude":-86.5083}},{"id":"172","start":"2019-08-24T19:15:10.342Z","end":"2019-08-24T19:15:14.522Z","person":{"id":"172","icon":"star","color":"#33820D","ageGroup":"Adult","favoriteActivity":"Gaming","height":70,"zipCode":"47401","state":"IN","latitude":39.1401,"longitude":-86.5083}},{"id":"171","start":"2019-08-24T19:14:02.663Z","end":"2019-08-24T19:14:07.219Z","person":{"id":"171","icon":"star","color":"#33820D","ageGroup":"Adult","favoriteActivity":"Gaming","height":70,"zipCode":"47401","state":"IN","latitude":39.1401,"longitude":-86.5083}},{"id":"170","start":"2019-08-24T18:56:18.682Z","end":"2019-08-24T18:56:20.333Z","person":{"id":"170","icon":"star","color":"#D3D406","ageGroup":"Kid","favoriteActivity":"Sports","height":48,"zipCode":"47401","state":"IN","latitude":39.1401,"longitude":-86.5083}},{"id":"169","start":"2019-08-24T18:54:32.045Z","end":"2019-08-24T18:54:33.833Z","person":{"id":"169","icon":"diamond","color":"#55D4D2","ageGroup":"Teen","favoriteActivity":null,"height":55,"zipCode":"47401","state":"IN","latitude":39.1401,"longitude":-86.5083}},{"id":"168","start":"2019-08-24T18:53:09.977Z","end":"2019-08-24T18:53:11.213Z","person":{"id":"168","icon":"cross","color":"#33820D","ageGroup":"Teen","favoriteActivity":"Sports","height":54,"zipCode":"47401","state":"IN","latitude":39.1401,"longitude":-86.5083}},{"id":"167","start":"2019-08-24T18:52:20.608Z","end":"2019-08-24T18:52:22.523Z","person":{"id":"167","icon":"star","color":"#8E1BCE","ageGroup":"Adult","favoriteActivity":"Cooking","height":72,"zipCode":"47401","state":"IN","latitude":39.1401,"longitude":-86.5083}},{"id":"166","start":"2019-08-24T18:44:39.887Z","end":"2019-08-24T18:44:41.838Z","person":{"id":"166","icon":"star","color":"#33820D","ageGroup":"Adult","favoriteActivity":"Gaming","height":70,"zipCode":"47401","state":"IN","latitude":39.1401,"longitude":-86.5083}},{"id":"165","start":"2019-08-24T18:42:59.203Z","end":"2019-08-24T18:43:00.332Z","person":{"id":"165","icon":"triangle-up","color":"#D30706","ageGroup":"Adult","favoriteActivity":"Art","height":68,"zipCode":"47720","state":"IN","latitude":38.0599,"longitude":-87.638}},{"id":"164","start":"2019-08-24T18:41:48.883Z","end":"2019-08-24T18:41:50.686Z","person":{"id":"164","icon":"star","color":"#0707D2","ageGroup":"Kid","favoriteActivity":"Sports","height":45,"zipCode":"47401","state":"IN","latitude":39.1401,"longitude":-86.5083}},{"id":"163","start":"2019-08-24T18:40:36.705Z","end":"2019-08-24T18:40:38.386Z","person":{"id":"163","icon":"star","color":"#33820D","ageGroup":"Adult","favoriteActivity":"Gaming","height":70,"zipCode":"47401","state":"IN","latitude":39.1401,"longitude":-86.5083}},{"id":"162","start":"2019-08-24T18:40:00.235Z","end":"2019-08-24T18:40:02.040Z","person":{"id":"162","icon":"cross","color":"#D36E44","ageGroup":"Teen","favoriteActivity":"Cooking","height":74,"zipCode":"47265","state":"IN","latitude":39.0018,"longitude":-85.6272}},{"id":"161","start":"2019-08-24T18:38:53.858Z","end":"2019-08-24T18:39:01.559Z","person":{"id":"161","icon":"cross","color":"#D36E44","ageGroup":"Teen","favoriteActivity":"Cooking","height":74,"zipCode":"47401","state":"IN","latitude":39.1401,"longitude":-86.5083}},{"id":"160","start":"2019-08-24T18:38:11.145Z","end":"2019-08-24T18:38:12.240Z","person":{"id":"160","icon":"diamond","color":"#9B180F","ageGroup":"Teen","favoriteActivity":"Gaming","height":67,"zipCode":"47401","state":"IN","latitude":39.1401,"longitude":-86.5083}},{"id":"159","start":"2019-08-24T18:37:20.507Z","end":"2019-08-24T18:37:22.349Z","person":{"id":"159","icon":"star","color":"#D3D406","ageGroup":"Teen","favoriteActivity":"Gaming","height":57,"zipCode":"47265","state":"IN","latitude":39.0018,"longitude":-85.6272}},{"id":"158","start":"2019-08-24T18:36:35.287Z","end":"2019-08-24T18:36:36.974Z","person":{"id":"158","icon":"triangle-up","color":"#55D4D2","ageGroup":"Teen","favoriteActivity":"Gaming","height":61,"zipCode":"47401","state":"IN","latitude":39.1401,"longitude":-86.5083}},{"id":"157","start":"2019-08-24T18:35:28.465Z","end":"2019-08-24T18:35:28.763Z","person":{"id":"157","icon":"star","color":"#D3D406","ageGroup":"Teen","favoriteActivity":"Gaming","height":57,"zipCode":"47265","state":"IN","latitude":39.0018,"longitude":-85.6272}},{"id":"156","start":"2019-08-24T18:34:46.125Z","end":"2019-08-24T18:34:47.157Z","person":{"id":"156","icon":"triangle-up","color":"#55D4D2","ageGroup":"Pre-Teen","favoriteActivity":"Gaming","height":61,"zipCode":"47401","state":"IN","latitude":39.1401,"longitude":-86.5083}},{"id":"155","start":"2019-08-24T18:33:57.627Z","end":"2019-08-24T18:33:59.307Z","person":{"id":"155","icon":"star","color":"#D3D406","ageGroup":"Teen","favoriteActivity":"Gaming","height":57,"zipCode":"47265","state":"IN","latitude":39.0018,"longitude":-85.6272}},{"id":"154","start":"2019-08-24T18:33:12.828Z","end":"2019-08-24T18:33:14.488Z","person":{"id":"154","icon":"cross","color":"#D3D406","ageGroup":"Pre-Teen","favoriteActivity":"Gaming","height":53,"zipCode":"47401","state":"IN","latitude":39.1401,"longitude":-86.5083}},{"id":"153","start":"2019-08-24T18:32:24.229Z","end":"2019-08-24T18:32:30.928Z","person":{"id":"153","icon":"cross","color":"#D3D406","ageGroup":"Pre-Teen","favoriteActivity":"Gaming","height":52,"zipCode":"47401","state":"IN","latitude":39.1401,"longitude":-86.5083}},{"id":"152","start":"2019-08-24T18:31:01.487Z","end":"2019-08-24T18:31:02.996Z","person":{"id":"152","icon":"diamond","color":"#9B180F","ageGroup":"Teen","favoriteActivity":"Gaming","height":67,"zipCode":"47401","state":"IN","latitude":39.1401,"longitude":-86.5083}},{"id":"151","start":"2019-08-24T18:28:51.022Z","end":"2019-08-24T18:28:51.954Z","person":{"id":"151","icon":"cross","color":"#8E1BCE","ageGroup":"Kid","favoriteActivity":"Other","height":55,"zipCode":"47265","state":"IN","latitude":39.0018,"longitude":-85.6272}},{"id":"150","start":"2019-08-24T18:28:08.809Z","end":"2019-08-24T18:28:09.595Z","person":{"id":"150","icon":"star","color":"#D3D406","ageGroup":"Teen","favoriteActivity":"Gaming","height":57,"zipCode":"47265","state":"IN","latitude":39.0018,"longitude":-85.6272}},{"id":"149","start":"2019-08-24T18:27:32.078Z","end":"2019-08-24T18:27:33.653Z","person":{"id":"149","icon":"cross","color":"#8E1BCE","ageGroup":"Kid","favoriteActivity":"Other","height":55,"zipCode":"47265","state":"IN","latitude":39.0018,"longitude":-85.6272}},{"id":"148","start":"2019-08-24T18:26:34.935Z","end":"2019-08-24T18:26:36.714Z","person":{"id":"148","icon":"star","color":"#D3D406","ageGroup":"Teen","favoriteActivity":"Gaming","height":57,"zipCode":"47265","state":"IN","latitude":39.0018,"longitude":-85.6272}},{"id":"147","start":"2019-08-24T18:25:32.254Z","end":"2019-08-24T18:25:33.980Z","person":{"id":"147","icon":"diamond","color":"#D372D2","ageGroup":"Adult","favoriteActivity":"Art","height":65,"zipCode":"47404","state":"IN","latitude":39.195,"longitude":-86.5757}},{"id":"146","start":"2019-08-24T18:24:04.601Z","end":"2019-08-24T18:24:11.184Z","person":{"id":"146","icon":"star","color":"#D3D406","ageGroup":"Adult","favoriteActivity":"Gaming","height":57,"zipCode":"47265","state":"IN","latitude":39.0018,"longitude":-85.6272}},{"id":"145","start":"2019-08-24T18:22:53.644Z","end":"2019-08-24T18:22:55.373Z","person":{"id":"145","icon":"star","color":"#D3D406","ageGroup":null,"favoriteActivity":"Gaming","height":57,"zipCode":"47265","state":"IN","latitude":39.0018,"longitude":-85.6272}},{"id":"144","start":"2019-08-24T18:22:15.694Z","end":"2019-08-24T18:22:17.272Z","person":{"id":"144","icon":"star","color":"#D3D406","ageGroup":"Teen","favoriteActivity":"Gaming","height":57,"zipCode":"47265","state":"IN","latitude":39.0018,"longitude":-85.6272}},{"id":"143","start":"2019-08-24T18:21:39.955Z","end":"2019-08-24T18:21:41.767Z","person":{"id":"143","icon":"star","color":"#D3D406","ageGroup":"Teen","favoriteActivity":"Gaming","height":57,"zipCode":"47265","state":"IN","latitude":39.0018,"longitude":-85.6272}},{"id":"142","start":"2019-08-24T18:21:00.113Z","end":"2019-08-24T18:21:01.717Z","person":{"id":"142","icon":"star","color":"#D3D406","ageGroup":"Teen","favoriteActivity":"Gaming","height":57,"zipCode":"47265","state":"IN","latitude":39.0018,"longitude":-85.6272}},{"id":"141","start":"2019-08-24T18:20:09.276Z","end":"2019-08-24T18:20:18.832Z","person":{"id":"141","icon":"triangle-up","color":"#D30706","ageGroup":"Kid","favoriteActivity":"Art","height":36,"zipCode":"47401","state":"IN","latitude":39.1401,"longitude":-86.5083}},{"id":"140","start":"2019-08-24T18:17:24.541Z","end":"2019-08-24T18:17:26.660Z","person":{"id":"140","icon":"star","color":"#D3D406","ageGroup":"Teen","favoriteActivity":"Gaming","height":57,"zipCode":"47265","state":"IN","latitude":39.0018,"longitude":-85.6272}},{"id":"139","start":"2019-08-24T18:16:27.307Z","end":"2019-08-24T18:16:28.444Z","person":{"id":"139","icon":"diamond","color":"#D372D2","ageGroup":"Kid","favoriteActivity":"Other","height":96,"zipCode":"47265","state":"IN","latitude":39.0018,"longitude":-85.6272}},{"id":"138","start":"2019-08-24T18:09:15.481Z","end":"2019-08-24T18:09:17.854Z","person":{"id":"138","icon":"star","color":"#8E1BCE","ageGroup":"Adult","favoriteActivity":"Sports","height":61,"zipCode":"47265","state":"IN","latitude":39.0018,"longitude":-85.6272}},{"id":"137","start":"2019-08-24T18:07:44.167Z","end":"2019-08-24T18:07:48.348Z","person":{"id":"137","icon":"cross","color":"#33820D","ageGroup":"Kid","favoriteActivity":"Cooking","height":36,"zipCode":"47265","state":"IN","latitude":39.0018,"longitude":-85.6272}},{"id":"136","start":"2019-08-24T18:04:52.645Z","end":"2019-08-24T18:04:55.426Z","person":{"id":"136","icon":"star","color":"#D30706","ageGroup":"Adult","favoriteActivity":null,"height":54,"zipCode":"47408","state":"IN","latitude":39.2303,"longitude":-86.4692}},{"id":"135","start":"2019-08-24T18:02:29.020Z","end":"2019-08-24T18:02:37.558Z","person":{"id":"135","icon":"star","color":"#D30706","ageGroup":"Adult","favoriteActivity":"Sports","height":null,"zipCode":"47408","state":"IN","latitude":39.2303,"longitude":-86.4692}},{"id":"134","start":"2019-08-24T18:01:25.127Z","end":"2019-08-24T18:01:28.547Z","person":{"id":"134","icon":"star","color":"#33820D","ageGroup":"Kid","favoriteActivity":"Sports","height":null,"zipCode":"47408","state":"IN","latitude":39.2303,"longitude":-86.4692}},{"id":"133","start":"2019-08-24T17:59:32.635Z","end":"2019-08-24T17:59:33.032Z","person":{"id":"133","icon":"star","color":"#8E1BCE","ageGroup":"Pre-Teen","favoriteActivity":"Cooking","height":60,"zipCode":"47401","state":"IN","latitude":39.1401,"longitude":-86.5083}},{"id":"132","start":"2019-08-24T17:58:48.057Z","end":"2019-08-24T17:58:49.831Z","person":{"id":"132","icon":"star","color":"#0707D2","ageGroup":"Pre-Teen","favoriteActivity":"Cooking","height":58,"zipCode":"47401","state":"IN","latitude":39.1401,"longitude":-86.5083}},{"id":"131","start":"2019-08-24T17:57:16.282Z","end":"2019-08-24T17:57:17.776Z","person":{"id":"131","icon":"diamond","color":"#8E1BCE","ageGroup":"Kid","favoriteActivity":"Cooking","height":39,"zipCode":"47401","state":"IN","latitude":39.1401,"longitude":-86.5083}},{"id":"130","start":"2019-08-24T17:55:30.426Z","end":"2019-08-24T17:55:32.640Z","person":{"id":"130","icon":"star","color":"#8E1BCE","ageGroup":"Kid","favoriteActivity":"Cooking","height":39,"zipCode":"47401","state":"IN","latitude":39.1401,"longitude":-86.5083}},{"id":"129","start":"2019-08-24T17:53:10.730Z","end":"2019-08-24T17:53:12.420Z","person":{"id":"129","icon":"star","color":"#D372D2","ageGroup":"Kid","favoriteActivity":"Art","height":48,"zipCode":"47401","state":"IN","latitude":39.1401,"longitude":-86.5083}},{"id":"128","start":"2019-08-24T17:52:27.658Z","end":"2019-08-24T17:52:29.730Z","person":{"id":"128","icon":"diamond","color":"#0707D2","ageGroup":"Kid","favoriteActivity":"Sports","height":42,"zipCode":"47401","state":"IN","latitude":39.1401,"longitude":-86.5083}},{"id":"127","start":"2019-08-24T17:50:21.907Z","end":"2019-08-24T17:50:24.306Z","person":{"id":"127","icon":"diamond","color":"#0707D2","ageGroup":null,"favoriteActivity":null,"height":null,"zipCode":"47401","state":"IN","latitude":39.1401,"longitude":-86.5083}},{"id":"126","start":"2019-08-24T17:49:42.942Z","end":"2019-08-24T17:49:45.328Z","person":{"id":"126","icon":"star","color":"#33820D","ageGroup":"Adult","favoriteActivity":"Gaming","height":70,"zipCode":"47401","state":"IN","latitude":39.1401,"longitude":-86.5083}},{"id":"125","start":"2019-08-24T17:40:09.354Z","end":"2019-08-24T17:40:11.471Z","person":{"id":"125","icon":"diamond","color":"#9B180F","ageGroup":"Teen","favoriteActivity":"Gaming","height":57,"zipCode":"47265","state":"IN","latitude":39.0018,"longitude":-85.6272}},{"id":"124","start":"2019-08-24T17:39:11.197Z","end":"2019-08-24T17:39:13.633Z","person":{"id":"124","icon":"star","color":"#D3D406","ageGroup":"Teen","favoriteActivity":"Gaming","height":57,"zipCode":"47265","state":"IN","latitude":39.0018,"longitude":-85.6272}},{"id":"123","start":"2019-08-24T17:38:15.739Z","end":"2019-08-24T17:38:22.948Z","person":{"id":"123","icon":"star","color":"#D3D406","ageGroup":"Teen","favoriteActivity":"Gaming","height":57,"zipCode":"47265","state":"IN","latitude":39.0018,"longitude":-85.6272}},{"id":"122","start":"2019-08-24T17:37:25.030Z","end":"2019-08-24T17:37:25.827Z","person":{"id":"122","icon":"cross","color":"#0707D2","ageGroup":"Kid","favoriteActivity":"Sports","height":47,"zipCode":"47432","state":"IN","latitude":38.5324,"longitude":-86.6196}},{"id":"121","start":"2019-08-24T17:36:38.622Z","end":"2019-08-24T17:36:40.197Z","person":{"id":"121","icon":"diamond","color":"#D372D2","ageGroup":"Kid","favoriteActivity":"Sports","height":45,"zipCode":"47432","state":"IN","latitude":38.5324,"longitude":-86.6196}},{"id":"120","start":"2019-08-24T17:35:26.254Z","end":"2019-08-24T17:35:27.418Z","person":{"id":"120","icon":"square","color":"#D30706","ageGroup":"Kid","favoriteActivity":"Sports","height":48,"zipCode":"47432","state":"IN","latitude":38.5324,"longitude":-86.6196}},{"id":"119","start":"2019-08-24T17:34:43.001Z","end":"2019-08-24T17:34:44.368Z","person":{"id":"119","icon":"triangle-up","color":"#0707D2","ageGroup":"Kid","favoriteActivity":"Sports","height":51,"zipCode":"47432","state":"IN","latitude":38.5324,"longitude":-86.6196}},{"id":"118","start":"2019-08-24T17:33:53.513Z","end":"2019-08-24T17:33:53.803Z","person":{"id":"118","icon":"cross","color":"#8E1BCE","ageGroup":"Kid","favoriteActivity":"Sports","height":41,"zipCode":"47437","state":"IN","latitude":38.7222,"longitude":-86.671}},{"id":"117","start":"2019-08-24T17:32:42.023Z","end":"2019-08-24T17:32:44.322Z","person":{"id":"117","icon":"star","color":"#55D4D2","ageGroup":"Kid","favoriteActivity":null,"height":43,"zipCode":"47432","state":"IN","latitude":38.5324,"longitude":-86.6196}},{"id":"116","start":"2019-08-24T17:31:39.997Z","end":"2019-08-24T17:31:41.338Z","person":{"id":"116","icon":"diamond","color":"#55D4D2","ageGroup":"Pre-Teen","favoriteActivity":"Art","height":60,"zipCode":"47432","state":"IN","latitude":38.5324,"longitude":-86.6196}},{"id":"115","start":"2019-08-24T17:30:52.051Z","end":"2019-08-24T17:30:53.157Z","person":{"id":"115","icon":"star","color":"#8E1BCE","ageGroup":"Teen","favoriteActivity":null,"height":91,"zipCode":"47432","state":"IN","latitude":38.5324,"longitude":-86.6196}},{"id":"114","start":"2019-08-24T17:29:57.035Z","end":"2019-08-24T17:29:58.647Z","person":{"id":"114","icon":"triangle-up","color":"#D30706","ageGroup":"Kid","favoriteActivity":"Sports","height":44,"zipCode":"47432","state":"IN","latitude":38.5324,"longitude":-86.6196}},{"id":"113","start":"2019-08-24T17:28:41.219Z","end":"2019-08-24T17:28:44.443Z","person":{"id":"113","icon":"diamond","color":"#55D4D2","ageGroup":"Pre-Teen","favoriteActivity":"Art","height":44,"zipCode":"47401","state":"IN","latitude":39.1401,"longitude":-86.5083}},{"id":"112","start":"2019-08-24T17:26:29.302Z","end":"2019-08-24T17:26:30.806Z","person":{"id":"112","icon":"cross","color":"#D30706","ageGroup":"Pre-Teen","favoriteActivity":"Gaming","height":45,"zipCode":"47460","state":"IN","latitude":39.2891,"longitude":-86.7789}},{"id":"111","start":"2019-08-24T17:24:18.049Z","end":"2019-08-24T17:24:24.341Z","person":{"id":"111","icon":"cross","color":"#D30706","ageGroup":"Pre-Teen","favoriteActivity":"Gaming","height":46,"zipCode":"47460","state":"IN","latitude":39.2891,"longitude":-86.7789}},{"id":"110","start":"2019-08-24T17:16:10.090Z","end":"2019-08-24T17:16:14.769Z","person":{"id":"110","icon":"triangle-up","color":"#0707D2","ageGroup":"Retired","favoriteActivity":"Art","height":60,"zipCode":"47265","state":"IN","latitude":39.0018,"longitude":-85.6272}},{"id":"109","start":"2019-08-24T17:15:10.072Z","end":"2019-08-24T17:15:12.189Z","person":{"id":"109","icon":"star","color":"#33820D","ageGroup":"Adult","favoriteActivity":"Gaming","height":70,"zipCode":"47401","state":"IN","latitude":39.1401,"longitude":-86.5083}},{"id":"108","start":"2019-08-24T16:50:19.087Z","end":"2019-08-24T16:50:27.642Z","person":{"id":"108","icon":"triangle-up","color":"#8E1BCE","ageGroup":"Kid","favoriteActivity":"Other","height":55,"zipCode":"47401","state":"IN","latitude":39.1401,"longitude":-86.5083}},{"id":"107","start":"2019-08-24T16:49:12.903Z","end":"2019-08-24T16:49:14.831Z","person":{"id":"107","icon":"star","color":"#0707D2","ageGroup":"Kid","favoriteActivity":"Sports","height":53,"zipCode":"47401","state":"IN","latitude":39.1401,"longitude":-86.5083}},{"id":"106","start":"2019-08-24T16:48:03.816Z","end":"2019-08-24T16:48:05.921Z","person":{"id":"106","icon":"cross","color":"#D30706","ageGroup":null,"favoriteActivity":"Cooking","height":58,"zipCode":"47401","state":"IN","latitude":39.1401,"longitude":-86.5083}},{"id":"105","start":"2019-08-24T16:46:22.603Z","end":"2019-08-24T16:46:23.995Z","person":{"id":"105","icon":"star","color":"#55D4D2","ageGroup":"Pre-Teen","favoriteActivity":"Cooking","height":66,"zipCode":"47017","state":"IN","latitude":38.949,"longitude":-85.2122}},{"id":"104","start":"2019-08-24T16:38:19.194Z","end":"2019-08-24T16:38:22.640Z","person":{"id":"104","icon":"triangle-up","color":"#D372D2","ageGroup":"Kid","favoriteActivity":"Gaming","height":36,"zipCode":"47401","state":"IN","latitude":39.1401,"longitude":-86.5083}},{"id":"103","start":"2019-08-24T16:37:17.823Z","end":"2019-08-24T16:37:22.686Z","person":{"id":"103","icon":"star","color":"#D3D406","ageGroup":"Kid","favoriteActivity":null,"height":69,"zipCode":"47401","state":"IN","latitude":39.1401,"longitude":-86.5083}},{"id":"102","start":"2019-08-24T16:35:04.907Z","end":"2019-08-24T16:35:08.377Z","person":{"id":"102","icon":"star","color":"#D36E44","ageGroup":"Kid","favoriteActivity":"Sports","height":40,"zipCode":"47401","state":"IN","latitude":39.1401,"longitude":-86.5083}},{"id":"101","start":"2019-08-24T16:33:36.399Z","end":"2019-08-24T16:33:42.307Z","person":{"id":"101","icon":"triangle-up","color":"#9B180F","ageGroup":"Kid","favoriteActivity":"Sports","height":49,"zipCode":"47401","state":"IN","latitude":39.1401,"longitude":-86.5083}},{"id":"100","start":"2019-08-24T16:32:30.339Z","end":"2019-08-24T16:32:34.026Z","person":{"id":"100","icon":"diamond","color":"#D30706","ageGroup":"Kid","favoriteActivity":"Sports","height":50,"zipCode":"47401","state":"IN","latitude":39.1401,"longitude":-86.5083}},{"id":"99","start":"2019-08-24T16:31:29.357Z","end":"2019-08-24T16:31:30.290Z","person":{"id":"99","icon":"star","color":"#8E1BCE","ageGroup":null,"favoriteActivity":"Other","height":60,"zipCode":"47401","state":"IN","latitude":39.1401,"longitude":-86.5083}},{"id":"98","start":"2019-08-24T16:30:40.826Z","end":"2019-08-24T16:30:42.456Z","person":{"id":"98","icon":"star","color":"#55D4D2","ageGroup":"Pre-Teen","favoriteActivity":"Cooking","height":59,"zipCode":"47401","state":"IN","latitude":39.1401,"longitude":-86.5083}},{"id":"97","start":"2019-08-24T16:29:43.749Z","end":"2019-08-24T16:29:44.751Z","person":{"id":"97","icon":null,"color":"#55D4D2","ageGroup":"Pre-Teen","favoriteActivity":"Cooking","height":55,"zipCode":"47401","state":"IN","latitude":39.1401,"longitude":-86.5083}},{"id":"96","start":"2019-08-24T16:28:56.050Z","end":"2019-08-24T16:28:58.176Z","person":{"id":"96","icon":"square","color":"#0707D2","ageGroup":"Kid","favoriteActivity":"Sports","height":52,"zipCode":"47401","state":"IN","latitude":39.1401,"longitude":-86.5083}},{"id":"95","start":"2019-08-24T16:28:09.353Z","end":"2019-08-24T16:28:10.700Z","person":{"id":"95","icon":"diamond","color":"#D372D2","ageGroup":"Kid","favoriteActivity":"Art","height":41,"zipCode":"47432","state":"IN","latitude":38.5324,"longitude":-86.6196}},{"id":"94","start":"2019-08-24T16:27:09.842Z","end":"2019-08-24T16:27:10.431Z","person":{"id":"94","icon":"star","color":"#8E1BCE","ageGroup":"Kid","favoriteActivity":"Sports","height":47,"zipCode":"47432","state":"IN","latitude":38.5324,"longitude":-86.6196}},{"id":"93","start":"2019-08-24T16:12:28.202Z","end":"2019-08-24T16:12:28.441Z","person":{"id":"93","icon":"triangle-up","color":"#33820D","ageGroup":"Kid","favoriteActivity":"Other","height":54,"zipCode":"47408","state":"IN","latitude":39.2303,"longitude":-86.4692}},{"id":"92","start":"2019-08-24T16:10:20.289Z","end":"2019-08-24T16:10:22.472Z","person":{"id":"92","icon":"star","color":"#0707D2","ageGroup":"Kid","favoriteActivity":"Sports","height":50,"zipCode":"47401","state":"IN","latitude":39.1401,"longitude":-86.5083}},{"id":"91","start":"2019-08-24T16:07:09.800Z","end":"2019-08-24T16:07:10.891Z","person":{"id":"91","icon":"star","color":"#0707D2","ageGroup":"Kid","favoriteActivity":"Sports","height":49,"zipCode":"47401","state":"IN","latitude":39.1401,"longitude":-86.5083}},{"id":"90","start":"2019-08-24T16:06:04.840Z","end":"2019-08-24T16:06:06.270Z","person":{"id":"90","icon":"square","color":"#33820D","ageGroup":"Pre-Teen","favoriteActivity":"Gaming","height":63,"zipCode":"47401","state":"IN","latitude":39.1401,"longitude":-86.5083}},{"id":"89","start":"2019-08-24T16:05:08.756Z","end":"2019-08-24T16:05:10.439Z","person":{"id":"89","icon":"diamond","color":"#D372D2","ageGroup":"Kid","favoriteActivity":"Art","height":56,"zipCode":"47401","state":"IN","latitude":39.1401,"longitude":-86.5083}},{"id":"88","start":"2019-08-24T16:03:46.147Z","end":"2019-08-24T16:03:46.694Z","person":{"id":"88","icon":"diamond","color":"#55D4D2","ageGroup":"Kid","favoriteActivity":"Art","height":53,"zipCode":"47401","state":"IN","latitude":39.1401,"longitude":-86.5083}},{"id":"87","start":"2019-08-24T15:51:32.799Z","end":null,"person":{"id":"87","icon":"star","color":"#0707D2","ageGroup":"Kid","favoriteActivity":"Gaming","height":47,"zipCode":"47401","state":"IN","latitude":39.1401,"longitude":-86.5083}},{"id":"86","start":"2019-08-24T15:49:49.215Z","end":"2019-08-24T15:49:50.530Z","person":{"id":"86","icon":"cross","color":"#55D4D2","ageGroup":"Pre-Teen","favoriteActivity":"Gaming","height":61,"zipCode":"47401","state":"IN","latitude":39.1401,"longitude":-86.5083}},{"id":"85","start":"2019-08-24T15:48:56.454Z","end":"2019-08-24T15:48:59.350Z","person":{"id":"85","icon":"triangle-up","color":"#D372D2","ageGroup":"Kid","favoriteActivity":"Gaming","height":36,"zipCode":"47401","state":"IN","latitude":39.1401,"longitude":-86.5083}},{"id":"84","start":"2019-08-24T15:48:00.754Z","end":"2019-08-24T15:48:02.423Z","person":{"id":"84","icon":"triangle-up","color":"#33820D","ageGroup":"Pre-Teen","favoriteActivity":"Art","height":52,"zipCode":"47401","state":"IN","latitude":39.1401,"longitude":-86.5083}},{"id":"83","start":"2019-08-24T15:46:37.311Z","end":"2019-08-24T15:46:38.133Z","person":{"id":"83","icon":"cross","color":"#D30706","ageGroup":"Pre-Teen","favoriteActivity":"Gaming","height":56,"zipCode":"47421","state":"IN","latitude":38.8729,"longitude":-86.4871}},{"id":"82","start":"2019-08-24T15:45:55.912Z","end":"2019-08-24T15:45:57.638Z","person":{"id":"82","icon":"triangle-up","color":"#33820D","ageGroup":"Pre-Teen","favoriteActivity":"Art","height":55,"zipCode":"47421","state":"IN","latitude":38.8729,"longitude":-86.4871}},{"id":"81","start":"2019-08-24T15:44:34.100Z","end":"2019-08-24T15:44:35.933Z","person":{"id":"81","icon":"star","color":"#0707D2","ageGroup":"Pre-Teen","favoriteActivity":"Cooking","height":54,"zipCode":"47459","state":"IN","latitude":39.119,"longitude":-86.7378}},{"id":"80","start":"2019-08-24T15:43:13.702Z","end":"2019-08-24T15:43:14.287Z","person":{"id":"80","icon":"star","color":"#55D4D2","ageGroup":"Kid","favoriteActivity":"Cooking","height":51,"zipCode":"47401","state":"IN","latitude":39.1401,"longitude":-86.5083}},{"id":"79","start":"2019-08-24T15:41:35.211Z","end":"2019-08-24T15:41:39.261Z","person":{"id":"79","icon":"diamond","color":"#D3D406","ageGroup":"Kid","favoriteActivity":"Cooking","height":40,"zipCode":"47401","state":"IN","latitude":39.1401,"longitude":-86.5083}},{"id":"78","start":"2019-08-24T15:32:32.175Z","end":"2019-08-24T15:32:36.184Z","person":{"id":"78","icon":"diamond","color":"#D39827","ageGroup":"Kid","favoriteActivity":"Sports","height":36,"zipCode":"47401","state":"IN","latitude":39.1401,"longitude":-86.5083}},{"id":"77","start":"2019-08-24T15:29:46.611Z","end":"2019-08-24T15:29:50.853Z","person":{"id":"77","icon":"cross","color":"#33820D","ageGroup":"Kid","favoriteActivity":"Cooking","height":36,"zipCode":"47401","state":"IN","latitude":39.1401,"longitude":-86.5083}},{"id":"76","start":"2019-08-24T15:28:15.284Z","end":"2019-08-24T15:28:19.711Z","person":{"id":"76","icon":"cross","color":"#33820D","ageGroup":"Kid","favoriteActivity":"Cooking","height":36,"zipCode":"47401","state":"IN","latitude":39.1401,"longitude":-86.5083}},{"id":"75","start":"2019-08-24T15:27:09.655Z","end":"2019-08-24T15:27:22.501Z","person":{"id":"75","icon":"triangle-up","color":"#8E1BCE","ageGroup":"Kid","favoriteActivity":"Art","height":36,"zipCode":"47401","state":"IN","latitude":39.1401,"longitude":-86.5083}},{"id":"74","start":"2019-08-24T15:24:45.860Z","end":"2019-08-24T15:24:47.520Z","person":{"id":"74","icon":null,"color":"#55D4D2","ageGroup":"Pre-Teen","favoriteActivity":"Sports","height":49,"zipCode":"47401","state":"IN","latitude":39.1401,"longitude":-86.5083}},{"id":"73","start":"2019-08-24T15:23:26.417Z","end":"2019-08-24T15:23:31.050Z","person":{"id":"73","icon":"star","color":"#0707D2","ageGroup":"Kid","favoriteActivity":"Gaming","height":36,"zipCode":"47401","state":"IN","latitude":39.1401,"longitude":-86.5083}},{"id":"72","start":"2019-08-24T15:20:33.696Z","end":"2019-08-24T15:20:34.935Z","person":{"id":"72","icon":"cross","color":"#0707D2","ageGroup":"Adult","favoriteActivity":"Sports","height":72,"zipCode":"47404","state":"IN","latitude":39.195,"longitude":-86.5757}},{"id":"71","start":"2019-08-24T15:18:02.209Z","end":"2019-08-24T15:18:04.320Z","person":{"id":"71","icon":"star","color":"#33820D","ageGroup":"Adult","favoriteActivity":"Gaming","height":70,"zipCode":"47401","state":"IN","latitude":39.1401,"longitude":-86.5083}},{"id":"70","start":"2019-08-24T15:17:06.145Z","end":"2019-08-24T15:17:08.339Z","person":{"id":"70","icon":"star","color":"#D372D2","ageGroup":"Kid","favoriteActivity":"Art","height":50,"zipCode":"47408","state":"IN","latitude":39.2303,"longitude":-86.4692}},{"id":"69","start":"2019-08-24T15:14:16.634Z","end":"2019-08-24T15:14:19.335Z","person":{"id":"69","icon":"star","color":"#33820D","ageGroup":"Adult","favoriteActivity":"Gaming","height":70,"zipCode":"47401","state":"IN","latitude":39.1401,"longitude":-86.5083}},{"id":"68","start":"2019-08-24T15:07:57.181Z","end":"2019-08-24T15:08:00.569Z","person":{"id":"68","icon":"triangle-up","color":"#0707D2","ageGroup":"Adult","favoriteActivity":"Cooking","height":72,"zipCode":"47404","state":"IN","latitude":39.195,"longitude":-86.5757}},{"id":"67","start":"2019-08-24T14:59:15.752Z","end":"2019-08-24T14:59:24.381Z","person":{"id":"67","icon":"star","color":"#8E1BCE","ageGroup":"Kid","favoriteActivity":"Art","height":36,"zipCode":"47401","state":"IN","latitude":39.1401,"longitude":-86.5083}},{"id":"66","start":"2019-08-24T14:57:48.041Z","end":"2019-08-24T14:57:48.933Z","person":{"id":"66","icon":"star","color":"#D372D2","ageGroup":"Kid","favoriteActivity":"Art","height":36,"zipCode":"47401","state":"IN","latitude":39.1401,"longitude":-86.5083}},{"id":"65","start":"2019-08-24T14:51:26.842Z","end":"2019-08-24T14:51:28.998Z","person":{"id":"65","icon":"triangle-up","color":"#0707D2","ageGroup":"Kid","favoriteActivity":"Gaming","height":36,"zipCode":"47401","state":"IN","latitude":39.1401,"longitude":-86.5083}},{"id":"64","start":"2019-08-24T14:50:41.447Z","end":"2019-08-24T14:50:43.638Z","person":{"id":"64","icon":"triangle-up","color":"#0707D2","ageGroup":"Kid","favoriteActivity":"Gaming","height":36,"zipCode":"47401","state":"IN","latitude":39.1401,"longitude":-86.5083}},{"id":"63","start":"2019-08-24T14:50:03.151Z","end":"2019-08-24T14:50:05.653Z","person":{"id":"63","icon":"triangle-up","color":"#0707D2","ageGroup":"Kid","favoriteActivity":"Gaming","height":36,"zipCode":"47401","state":"IN","latitude":39.1401,"longitude":-86.5083}},{"id":"62","start":"2019-08-24T14:47:56.781Z","end":"2019-08-24T14:47:58.142Z","person":{"id":"62","icon":"cross","color":"#8E1BCE","ageGroup":"Kid","favoriteActivity":"Sports","height":49,"zipCode":"47401","state":"IN","latitude":39.1401,"longitude":-86.5083}},{"id":"61","start":"2019-08-24T14:47:12.704Z","end":"2019-08-24T14:47:21.512Z","person":{"id":"61","icon":"triangle-up","color":"#D372D2","ageGroup":"Kid","favoriteActivity":"Sports","height":50,"zipCode":"47401","state":"IN","latitude":39.1401,"longitude":-86.5083}},{"id":"60","start":"2019-08-24T14:46:32.851Z","end":"2019-08-24T14:46:33.735Z","person":{"id":"60","icon":"diamond","color":"#0707D2","ageGroup":"Adult","favoriteActivity":"Sports","height":63,"zipCode":"47401","state":"IN","latitude":39.1401,"longitude":-86.5083}},{"id":"59","start":"2019-08-24T14:45:43.044Z","end":"2019-08-24T14:45:44.534Z","person":{"id":"59","icon":"cross","color":"#8E1BCE","ageGroup":"Pre-Teen","favoriteActivity":"Sports","height":49,"zipCode":"47401","state":"IN","latitude":39.1401,"longitude":-86.5083}},{"id":"58","start":"2019-08-24T14:44:57.848Z","end":"2019-08-24T14:44:58.425Z","person":{"id":"58","icon":"diamond","color":"#0707D2","ageGroup":"Adult","favoriteActivity":"Sports","height":63,"zipCode":"47401","state":"IN","latitude":39.1401,"longitude":-86.5083}},{"id":"57","start":"2019-08-24T14:43:03.690Z","end":"2019-08-24T14:43:04.651Z","person":{"id":"57","icon":"star","color":"#33820D","ageGroup":"Adult","favoriteActivity":"Gaming","height":70,"zipCode":"47401","state":"IN","latitude":39.1401,"longitude":-86.5083}},{"id":"56","start":"2019-08-24T14:41:55.590Z","end":"2019-08-24T14:41:57.436Z","person":{"id":"56","icon":"star","color":"#55D4D2","ageGroup":"Teen","favoriteActivity":"Cooking","height":65,"zipCode":"47401","state":"IN","latitude":39.1401,"longitude":-86.5083}},{"id":"55","start":"2019-08-24T14:39:01.832Z","end":"2019-08-24T14:39:03.824Z","person":{"id":"55","icon":"star","color":"#33820D","ageGroup":"Adult","favoriteActivity":"Gaming","height":70,"zipCode":"47401","state":"IN","latitude":39.1401,"longitude":-86.5083}},{"id":"54","start":"2019-08-24T14:22:26.151Z","end":"2019-08-24T14:22:27.579Z","person":{"id":"54","icon":"diamond","color":"#D3D406","ageGroup":"Adult","favoriteActivity":"Sports","height":71,"zipCode":"47401","state":"IN","latitude":39.1401,"longitude":-86.5083}},{"id":"53","start":"2019-08-24T14:17:02.733Z","end":"2019-08-24T14:17:04.655Z","person":{"id":"53","icon":"star","color":"#33820D","ageGroup":"Adult","favoriteActivity":"Gaming","height":70,"zipCode":"47401","state":"IN","latitude":39.1401,"longitude":-86.5083}},{"id":"52","start":"2019-08-24T14:16:00.007Z","end":"2019-08-24T14:16:01.942Z","person":{"id":"52","icon":"star","color":"#33820D","ageGroup":"Adult","favoriteActivity":"Gaming","height":70,"zipCode":"47401","state":"IN","latitude":39.1401,"longitude":-86.5083}},{"id":"51","start":"2019-08-24T14:08:35.140Z","end":"2019-08-24T14:08:37.849Z","person":{"id":"51","icon":"star","color":"#33820D","ageGroup":"Adult","favoriteActivity":"Gaming","height":70,"zipCode":"47401","state":"IN","latitude":39.1401,"longitude":-86.5083}},{"id":"50","start":"2019-08-24T13:57:09.580Z","end":"2019-08-24T13:57:12.194Z","person":{"id":"50","icon":"star","color":"#33820D","ageGroup":"Adult","favoriteActivity":"Gaming","height":70,"zipCode":"47401","state":"IN","latitude":39.1401,"longitude":-86.5083}},{"id":"49","start":"2019-08-24T13:42:30.656Z","end":"2019-08-24T13:42:33.534Z","person":{"id":"49","icon":"star","color":"#33820D","ageGroup":"Adult","favoriteActivity":"Gaming","height":70,"zipCode":"47401","state":"IN","latitude":39.1401,"longitude":-86.5083}},{"id":"48","start":"2019-08-23T13:15:57.199Z","end":"2019-08-23T13:16:01.000Z","person":{"id":"48","icon":"star","color":"#33820D","ageGroup":"Adult","favoriteActivity":"Gaming","height":70,"zipCode":"47401","state":"IN","latitude":39.1401,"longitude":-86.5083}},{"id":"47","start":"2019-08-23T12:06:44.614Z","end":"2019-08-23T12:06:47.554Z","person":{"id":"47","icon":"star","color":"#33820D","ageGroup":"Adult","favoriteActivity":"Gaming","height":70,"zipCode":"47401","state":"IN","latitude":39.1401,"longitude":-86.5083}},{"id":"46","start":"2019-08-23T02:48:52.513Z","end":null,"person":{"id":"46","icon":"cross","color":"#9B180F","ageGroup":"Adult","favoriteActivity":"Sports","height":45,"zipCode":"47424","state":"IN","latitude":39.0295,"longitude":-86.8675}},{"id":"45","start":"2019-08-22T18:17:35.912Z","end":"2019-08-22T18:17:36.805Z","person":{"id":"45","icon":"cross","color":"#0707D2","ageGroup":"Adult","favoriteActivity":"Sports","height":72,"zipCode":"47401","state":"IN","latitude":39.1401,"longitude":-86.5083}},{"id":"44","start":"2019-08-22T18:13:39.111Z","end":"2019-08-22T18:13:39.489Z","person":{"id":"44","icon":"cross","color":"#0707D2","ageGroup":"Adult","favoriteActivity":"Sports","height":72,"zipCode":"47404","state":"IN","latitude":39.195,"longitude":-86.5757}},{"id":"43","start":"2019-08-22T18:09:25.983Z","end":"2019-08-22T18:09:28.599Z","person":{"id":"43","icon":"cross","color":"#0707D2","ageGroup":"Teen","favoriteActivity":"Cooking","height":58,"zipCode":"02349","state":"MA","latitude":41.8932,"longitude":-70.9112}},{"id":"42","start":"2019-08-22T17:34:53.707Z","end":"2019-08-22T17:35:03.371Z","person":{"id":"42","icon":"star","color":"#D3D406","ageGroup":"Retired","favoriteActivity":"Sports","height":94,"zipCode":"40826","state":"KY","latitude":37.0618,"longitude":-82.7706}},{"id":"41","start":"2019-08-22T17:33:00.909Z","end":"2019-08-22T17:33:01.917Z","person":{"id":"41","icon":"diamond","color":"#0707D2","ageGroup":"Adult","favoriteActivity":"Gaming","height":74,"zipCode":"12784","state":"NY","latitude":41.6681,"longitude":-74.6252}},{"id":"40","start":"2019-08-22T17:31:42.650Z","end":"2019-08-22T17:31:45.581Z","person":{"id":"40","icon":"square","color":"#8E1BCE","ageGroup":"Adult","favoriteActivity":"Art","height":72,"zipCode":"47906","state":"IN","latitude":40.444,"longitude":-86.9237}},{"id":"39","start":"2019-08-22T15:38:38.757Z","end":"2019-08-22T15:38:41.732Z","person":{"id":"39","icon":"star","color":"#33820D","ageGroup":"Adult","favoriteActivity":"Gaming","height":70,"zipCode":"47401","state":"IN","latitude":39.1401,"longitude":-86.5083}},{"id":"38","start":"2019-08-22T11:53:48.822Z","end":"2019-08-22T11:53:51.791Z","person":{"id":"38","icon":"star","color":"#33820D","ageGroup":"Adult","favoriteActivity":"Gaming","height":71,"zipCode":"47401","state":"IN","latitude":39.1401,"longitude":-86.5083}},{"id":"37","start":"2019-08-21T19:14:54.700Z","end":"2019-08-21T19:14:56.230Z","person":{"id":"37","icon":"star","color":"#D372D2","ageGroup":"Adult","favoriteActivity":"Gaming","height":58,"zipCode":"47401","state":"IN","latitude":39.1401,"longitude":-86.5083}},{"id":"36","start":"2019-08-21T19:13:58.171Z","end":"2019-08-21T19:13:59.904Z","person":{"id":"36","icon":"star","color":"#D372D2","ageGroup":"Kid","favoriteActivity":"Cooking","height":50,"zipCode":"47401","state":"IN","latitude":39.1401,"longitude":-86.5083}},{"id":"35","start":"2019-08-21T17:39:26.989Z","end":"2019-08-21T17:39:30.257Z","person":{"id":"35","icon":"star","color":"#33820D","ageGroup":"Adult","favoriteActivity":"Gaming","height":70,"zipCode":"47401","state":"IN","latitude":39.1401,"longitude":-86.5083}},{"id":"34","start":"2019-08-21T16:01:18.153Z","end":"2019-08-21T16:01:21.276Z","person":{"id":"34","icon":"star","color":"#33820D","ageGroup":"Adult","favoriteActivity":"Gaming","height":62,"zipCode":"47265","state":"IN","latitude":39.0018,"longitude":-85.6272}},{"id":"33","start":"2019-08-21T15:41:36.288Z","end":"2019-08-21T15:41:38.362Z","person":{"id":"33","icon":"star","color":"#33820D","ageGroup":"Adult","favoriteActivity":"Cooking","height":53,"zipCode":"47408","state":"IN","latitude":39.2303,"longitude":-86.4692}},{"id":"32","start":"2019-08-21T15:39:49.015Z","end":null,"person":{"id":"32","icon":"star","color":"#33820D","ageGroup":"Adult","favoriteActivity":"Cooking","height":64,"zipCode":"47408","state":"IN","latitude":39.2303,"longitude":-86.4692}},{"id":"31","start":"2019-08-21T14:43:56.030Z","end":"2019-08-21T14:43:59.142Z","person":{"id":"31","icon":"star","color":"#33820D","ageGroup":"Adult","favoriteActivity":"Gaming","height":69,"zipCode":"47401","state":"IN","latitude":39.1401,"longitude":-86.5083}},{"id":"30","start":"2019-08-21T14:39:16.468Z","end":"2019-08-21T14:39:18.938Z","person":{"id":"30","icon":"cross","color":"#8E1BCE","ageGroup":"Retired","favoriteActivity":"Art","height":71,"zipCode":"46254","state":"IN","latitude":39.849,"longitude":-86.272}},{"id":"29","start":"2019-08-21T14:12:13.930Z","end":"2019-08-21T14:12:17.015Z","person":{"id":"29","icon":"star","color":"#33820D","ageGroup":"Adult","favoriteActivity":"Gaming","height":70,"zipCode":"47401","state":"IN","latitude":39.1401,"longitude":-86.5083}},{"id":"28","start":"2019-08-21T14:08:40.545Z","end":"2019-08-21T14:08:43.923Z","person":{"id":"28","icon":"cross","color":"#0707D2","ageGroup":"Kid","favoriteActivity":"Other","height":71,"zipCode":"47041","state":"IN","latitude":39.237,"longitude":-85.0947}},{"id":"27","start":"2019-08-21T13:50:08.539Z","end":"2019-08-21T13:50:11.166Z","person":{"id":"27","icon":"square","color":"#D372D2","ageGroup":"Teen","favoriteActivity":"Cooking","height":49,"zipCode":"47401","state":"IN","latitude":39.1401,"longitude":-86.5083}},{"id":"26","start":"2019-08-21T12:07:07.110Z","end":"2019-08-21T12:07:09.991Z","person":{"id":"26","icon":"triangle-up","color":"#8E1BCE","ageGroup":"Adult","favoriteActivity":"Gaming","height":66,"zipCode":"47401","state":"IN","latitude":39.1401,"longitude":-86.5083}},{"id":"25","start":"2019-08-20T20:55:47.037Z","end":"2019-08-20T20:55:49.935Z","person":{"id":"25","icon":"diamond","color":"#0707D2","ageGroup":"Pre-Teen","favoriteActivity":"Cooking","height":47,"zipCode":"47401","state":"IN","latitude":39.1401,"longitude":-86.5083}},{"id":"24","start":"2019-08-20T20:36:32.006Z","end":"2019-08-20T20:36:34.129Z","person":{"id":"24","icon":"triangle-up","color":"#0707D2","ageGroup":"Pre-Teen","favoriteActivity":"Cooking","height":50,"zipCode":"47401","state":"IN","latitude":39.1401,"longitude":-86.5083}},{"id":"23","start":"2019-08-20T20:34:09.091Z","end":"2019-08-20T20:34:11.402Z","person":{"id":"23","icon":"diamond","color":"#D372D2","ageGroup":"Pre-Teen","favoriteActivity":"Sports","height":51,"zipCode":"47401","state":"IN","latitude":39.1401,"longitude":-86.5083}},{"id":"22","start":"2019-08-20T20:32:42.554Z","end":"2019-08-20T20:32:45.840Z","person":{"id":"22","icon":"cross","color":"#0707D2","ageGroup":"Pre-Teen","favoriteActivity":"Gaming","height":56,"zipCode":"47401","state":"IN","latitude":39.1401,"longitude":-86.5083}},{"id":"21","start":"2019-08-20T20:31:20.525Z","end":"2019-08-20T20:31:23.371Z","person":{"id":"21","icon":"cross","color":"#0707D2","ageGroup":"Kid","favoriteActivity":"Art","height":77,"zipCode":"47401","state":"IN","latitude":39.1401,"longitude":-86.5083}},{"id":"20","start":"2019-08-20T18:23:50.294Z","end":"2019-08-20T18:23:51.115Z","person":{"id":"20","icon":"star","color":"#8E1BCE","ageGroup":"Adult","favoriteActivity":"Art","height":58,"zipCode":"46254","state":"IN","latitude":39.849,"longitude":-86.272}},{"id":"19","start":"2019-08-20T18:21:38.310Z","end":"2019-08-20T18:21:40.180Z","person":{"id":"19","icon":"square","color":"#8E1BCE","ageGroup":"Adult","favoriteActivity":"Art","height":47,"zipCode":"47401","state":"IN","latitude":39.1401,"longitude":-86.5083}},{"id":"18","start":"2019-08-20T18:20:54.892Z","end":"2019-08-20T18:20:56.680Z","person":{"id":"18","icon":"diamond","color":"#D372D2","ageGroup":"Adult","favoriteActivity":"Sports","height":51,"zipCode":"47401","state":"IN","latitude":39.1401,"longitude":-86.5083}},{"id":"17","start":"2019-08-20T15:45:53.410Z","end":"2019-08-20T15:45:56.058Z","person":{"id":"17","icon":"diamond","color":"#0707D2","ageGroup":"Pre-Teen","favoriteActivity":"Cooking","height":45,"zipCode":"46253","state":"IN","latitude":39.7795,"longitude":-86.1328}},{"id":"16","start":"2019-08-20T15:43:33.949Z","end":"2019-08-20T15:43:36.972Z","person":{"id":"16","icon":"diamond","color":"#0707D2","ageGroup":"Teen","favoriteActivity":"Cooking","height":52,"zipCode":"47401","state":"IN","latitude":39.1401,"longitude":-86.5083}},{"id":"15","start":"2019-08-19T19:46:20.184Z","end":"2019-08-19T19:46:22.611Z","person":{"id":"15","icon":"diamond","color":"#8E1BCE","ageGroup":"Pre-Teen","favoriteActivity":null,"height":49,"zipCode":"47401","state":"IN","latitude":39.1401,"longitude":-86.5083}},{"id":"14","start":"2019-08-19T19:43:21.953Z","end":"2019-08-19T19:43:24.604Z","person":{"id":"14","icon":"diamond","color":"#0707D2","ageGroup":"Pre-Teen","favoriteActivity":"Cooking","height":45,"zipCode":"47401","state":"IN","latitude":39.1401,"longitude":-86.5083}},{"id":"13","start":"2019-08-19T18:26:43.440Z","end":"2019-08-19T18:26:45.210Z","person":{"id":"13","icon":"diamond","color":"#8E1BCE","ageGroup":"Teen","favoriteActivity":"Cooking","height":41,"zipCode":"47401","state":"IN","latitude":39.1401,"longitude":-86.5083}},{"id":"12","start":"2019-08-19T18:22:22.684Z","end":"2019-08-19T18:22:27.131Z","person":{"id":"12","icon":"diamond","color":"#8E1BCE","ageGroup":"Pre-Teen","favoriteActivity":"Cooking","height":46,"zipCode":"47401","state":"IN","latitude":39.1401,"longitude":-86.5083}},{"id":"11","start":"2019-08-19T18:15:14.991Z","end":"2019-08-19T18:15:17.737Z","person":{"id":"11","icon":"triangle-up","color":"#D3D406","ageGroup":"Teen","favoriteActivity":null,"height":55,"zipCode":"47401","state":"IN","latitude":39.1401,"longitude":-86.5083}},{"id":"10","start":"2019-08-19T17:44:42.464Z","end":"2019-08-19T17:44:44.757Z","person":{"id":"10","icon":"triangle-up","color":"#D372D2","ageGroup":"Pre-Teen","favoriteActivity":"Cooking","height":46,"zipCode":"47401","state":"IN","latitude":39.1401,"longitude":-86.5083}},{"id":"9","start":"2019-08-19T17:30:15.523Z","end":"2019-08-19T17:30:20.985Z","person":{"id":"9","icon":"diamond","color":"#D372D2","ageGroup":"Pre-Teen","favoriteActivity":"Cooking","height":61,"zipCode":"47401","state":"IN","latitude":39.1401,"longitude":-86.5083}},{"id":"8","start":"2019-08-19T17:22:58.194Z","end":null,"person":{"id":"8","icon":"diamond","color":"#8E1BCE","ageGroup":"Pre-Teen","favoriteActivity":"Cooking","height":43,"zipCode":"47401","state":"IN","latitude":39.1401,"longitude":-86.5083}},{"id":"7","start":"2019-08-19T17:21:38.710Z","end":null,"person":{"id":"7","icon":"diamond","color":"#8E1BCE","ageGroup":"Pre-Teen","favoriteActivity":"Cooking","height":65,"zipCode":"47401","state":"IN","latitude":39.1401,"longitude":-86.5083}},{"id":"6","start":"2019-08-13T17:34:48.110Z","end":"2019-08-13T17:34:53.239Z","person":{"id":"6","icon":"cross","color":"#0707D2","ageGroup":"Pre-Teen","favoriteActivity":"Cooking","height":48,"zipCode":"55105","state":"MN","latitude":44.9347,"longitude":-93.1651}},{"id":"5","start":"2019-08-13T17:26:15.828Z","end":"2019-08-13T17:26:19.207Z","person":{"id":"5","icon":"diamond","color":"#D3D406","ageGroup":"Pre-Teen","favoriteActivity":"Cooking","height":47,"zipCode":"55106","state":"MN","latitude":44.9684,"longitude":-93.0488}},{"id":"4","start":"2019-08-13T17:15:45.009Z","end":"2019-08-13T17:15:49.984Z","person":{"id":"4","icon":"cross","color":"#0707D2","ageGroup":"Pre-Teen","favoriteActivity":"Cooking","height":48,"zipCode":"55104","state":"MN","latitude":44.9532,"longitude":-93.158}},{"id":"3","start":"2019-08-13T17:13:21.488Z","end":"2019-08-13T17:13:22.764Z","person":{"id":"3","icon":"diamond","color":"#33820D","ageGroup":"Pre-Teen","favoriteActivity":"Cooking","height":56,"zipCode":"55105","state":"MN","latitude":44.9347,"longitude":-93.1651}},{"id":"2","start":"2019-08-13T17:09:29.764Z","end":"2019-08-13T17:09:31.125Z","person":{"id":"2","icon":"triangle-up","color":"#D372D2","ageGroup":"Pre-Teen","favoriteActivity":"Cooking","height":45,"zipCode":"55104","state":"MN","latitude":44.9532,"longitude":-93.158}},{"id":"1","start":"2019-08-13T17:07:38.875Z","end":"2019-08-13T17:07:40.375Z","person":{"id":"1","icon":"diamond","color":"#D36E44","ageGroup":"Adult","favoriteActivity":"Cooking","height":58,"zipCode":"55104","state":"MN","latitude":44.9532,"longitude":-93.158}}]}}
